{
"type": "FeatureCollection",
"name": "rute_feeder",
"crs": { "type": "name", "properties": { "name": "urn:ogc:def:crs:OGC:1.3:CRS84" } },
"features": [
{ "type": "Feature", "properties": { "OBJECTID": 1, "Nama": "Rute Koridor F1A Menuju Kp. Gondoriyo", "SymbolID": null, "SHAPE_Length": 6264.3699200266274, "layer": "default — Rute_Koridor_F1A", "path": "C:\\Users\\LENOVO\\Documents\\ArcGIS\\Packages\\Rute_Koridor_1M_be1f0d\\commondata\\default.gdb|layername=Rute_Koridor_F1A", "koridor_id": "F1A", "route_id": "F1A_0", "nama_koridor": "Rute Koridor F1A Menuju Kp. Go", "arah_balik": true }, "geometry": { "type": "MultiLineString", "coordinates": [ [ [ 110.350626942880936, -6.997926853835707 ], [ 110.349332470556504, -6.996128446097052 ], [ 110.34923724913638, -6.9961997762335 ], [ 110.344186022293798, -7.006865292188063 ], [ 110.343896764772296, -7.006712827493707 ], [ 110.346665372477958, -7.000857610548533 ], [ 110.346665372477958, -7.000782714652422 ], [ 110.32617210590135, -6.992750060030859 ], [ 110.32608137605763, -6.992750060030859 ], [ 110.319885695543078, -6.999505024477393 ], [ 110.319790474122939, -6.999583487059311 ], [ 110.319026906131441, -7.003159761871638 ] ] ] } },
{ "type": "Feature", "properties": { "OBJECTID": 2, "Nama": "Rute Koridor F1A Menuju Ngaliyan", "SymbolID": null, "SHAPE_Length": 24296.442109746575, "layer": "default — Rute_Koridor_F1A", "path": "C:\\Users\\LENOVO\\Documents\\ArcGIS\\Packages\\Rute_Koridor_1M_be1f0d\\commondata\\default.gdb|layername=Rute_Koridor_F1A", "koridor_id": "F1A", "route_id": "F1A_1", "nama_koridor": "Rute Koridor F1A Menuju Ngaliy", "arah_balik": false }, "geometry": { "type": "MultiLineString", "coordinates": [ [ [ 110.319026906131441, -7.003159761871638 ], [ 110.318835564975942, -7.004235937930682 ], [ 110.318652308657974, -7.004385728602011 ], [ 110.304066363389722, -7.00086028540175 ], [ 110.301829868251033, -6.999613916271611 ] ], [ [ 110.301829868251033, -6.999613916271611 ], [ 110.301772066154086, -6.999581703818967 ], [ 110.29720413293434, -6.999578137338222 ], [ 110.29348780260392, -7.00597279347346 ], [ 110.29348780260392, -7.020461197563645 ], [ 110.298348586606309, -7.033809745087083 ], [ 110.296916672043437, -7.038543875990113 ], [ 110.321600579420434, -7.053468107991885 ], [ 110.322268027676543, -7.051978380978541 ], [ 110.304637691910429, -7.011296554205304 ], [ 110.306078589626154, -7.003935464831851 ], [ 110.30177925267634, -6.999725254645435 ], [ 110.301829868251033, -6.999613916271611 ] ], [ [ 110.301829868251033, -6.999613916271611 ], [ 110.301878965672898, -6.999505916097729 ], [ 110.304161584809847, -7.000780039798759 ], [ 110.318648715396833, -7.004310833272344 ], [ 110.318742140186373, -7.004239504375783 ], [ 110.319414080018902, -7.000902191433375 ], [ 110.319697049333399, -6.999581703818967 ], [ 110.319790474122939, -6.999503241236749 ], [ 110.326079579427073, -6.992675162834035 ], [ 110.326174800847198, -6.992676054467415 ], [ 110.346761492213361, -7.000723867868447 ], [ 110.349521116766169, -6.994849851552988 ], [ 110.349805882711237, -6.99507721694751 ], [ 110.349332470556504, -6.996054441068964 ], [ 110.350666468753431, -6.997904563251703 ] ] ] } },
{ "type": "Feature", "properties": { "OBJECTID": 1, "Nama": "Rute Koridor F1B Menuju Madukuro", "SymbolID": null, "SHAPE_Length": 9845.2773880786772, "layer": "default — Rute_Koridor_F1B", "path": "C:\\Users\\LENOVO\\Documents\\ArcGIS\\Packages\\Rute_Koridor_1M_be1f0d\\commondata\\default.gdb|layername=Rute_Koridor_F1B", "koridor_id": "F1B", "route_id": "F1B_2", "nama_koridor": "Rute Koridor F1B Menuju Maduku", "arah_balik": true }, "geometry": { "type": "MultiLineString", "coordinates": [ [ [ 110.350571247333292, -6.997925962212387 ], [ 110.349333368871797, -6.996207800873154 ], [ 110.349041416404475, -6.99575307107442 ], [ 110.349903799077225, -6.993958221486628 ], [ 110.349999020497322, -6.993860142075405 ], [ 110.360195797287375, -6.998156000977541 ], [ 110.360291917022764, -6.998230897295249 ], [ 110.360292815338056, -6.998905855235074 ], [ 110.36477271365996, -6.998905855235074 ], [ 110.367915020523824, -6.993647042192738 ], [ 110.368010241943921, -6.993496356442991 ], [ 110.366295358066537, -6.986744871679697 ], [ 110.366387884540814, -6.986669081875636 ], [ 110.383543909836902, -6.983661554205861 ], [ 110.383739742568849, -6.983441316465596 ], [ 110.401079024182906, -6.98043822632527 ], [ 110.399232986274043, -6.962189224717194 ] ] ] } },
{ "type": "Feature", "properties": { "OBJECTID": 2, "Nama": "Rute Koridor F1B Menuju Ngaliyan", "SymbolID": null, "SHAPE_Length": 15142.251147369474, "layer": "default — Rute_Koridor_F1B", "path": "C:\\Users\\LENOVO\\Documents\\ArcGIS\\Packages\\Rute_Koridor_1M_be1f0d\\commondata\\default.gdb|layername=Rute_Koridor_F1B", "koridor_id": "F1B", "route_id": "F1B_3", "nama_koridor": "Rute Koridor F1B Menuju Ngaliy", "arah_balik": false }, "geometry": { "type": "MultiLineString", "coordinates": [ [ [ 110.399232986274043, -6.962189224717194 ], [ 110.399167409258339, -6.961670260017674 ], [ 110.39707613127689, -6.9618940747609 ], [ 110.397075232961598, -6.961745162174685 ], [ 110.39927071551601, -6.961519563975067 ], [ 110.401174245603045, -6.979834574347587 ], [ 110.40127126365374, -6.981564387386804 ], [ 110.401259585555039, -6.982239369400039 ], [ 110.401745574123751, -6.992676946100759 ], [ 110.397171352696986, -6.992157123560729 ], [ 110.385450134869828, -6.986215234438937 ], [ 110.385452829815662, -6.992446904636398 ], [ 110.389738692036204, -6.996210475753021 ], [ 110.389331755212481, -6.999258045582311 ], [ 110.380018022346732, -6.99710923451792 ], [ 110.379732358086414, -6.995379479006449 ], [ 110.379160131250401, -6.995223444044695 ], [ 110.377158684797408, -6.985167549577757 ], [ 110.377063463377283, -6.985167549577757 ], [ 110.366485800906773, -6.987048030773085 ], [ 110.366485800906773, -6.987118470651919 ], [ 110.368102768418183, -6.993500814601965 ], [ 110.364862545188373, -6.99898075143242 ], [ 110.360195797287375, -6.998981643053757 ], [ 110.360195797287375, -6.998228222426961 ], [ 110.350377211231944, -6.99410088241164 ], [ 110.349427691976629, -6.996056224322784 ], [ 110.349427691976629, -6.996123096336366 ], [ 110.350666468753431, -6.997851065845751 ] ] ] } },
{ "type": "Feature", "properties": { "OBJECTID": 1, "Nama": "Rute Koridor F2A Menuju ADA Majapahit A", "SymbolID": null, "SHAPE_Length": 17184.945830113564, "layer": "default — Rute_Koridor_F2A", "path": "C:\\Users\\LENOVO\\Documents\\ArcGIS\\Packages\\Rute_Koridor_1M_be1f0d\\commondata\\default.gdb|layername=Rute_Koridor_F2A", "koridor_id": "F2A", "route_id": "F2A_4", "nama_koridor": "Rute Koridor F2A Menuju ADA Ma", "arah_balik": true }, "geometry": { "type": "MultiLineString", "coordinates": [ [ [ 110.443700239624974, -7.003800567504909 ], [ 110.443855001382119, -7.00383827912935 ], [ 110.443578320274611, -7.004835991937432 ], [ 110.443384284173263, -7.004835991937432 ], [ 110.443700239624974, -7.003800567504909 ] ], [ [ 110.443700239624974, -7.003800567504909 ], [ 110.447965692122267, -6.989821927347843 ], [ 110.448151643386083, -6.989672132003453 ], [ 110.457397104290223, -6.989747029681666 ], [ 110.456336193939705, -6.988471092595818 ], [ 110.456541908139755, -6.988308813834882 ], [ 110.457608208381998, -6.989672132003453 ], [ 110.45826038527828, -6.990495114165831 ], [ 110.458256792017124, -6.990494222528322 ], [ 110.455015670472037, -7.003410305152696 ], [ 110.455109095261577, -7.003485200626979 ], [ 110.460178288409878, -7.00557067810966 ] ], [ [ 110.463212797439638, -6.952964586229578 ], [ 110.463211000809039, -6.955964285559911 ], [ 110.441961352763187, -6.960767866424311 ], [ 110.444724570577165, -6.9655767482308 ], [ 110.443674440010028, -6.972630815123687 ], [ 110.448157033277795, -6.973381601985488 ], [ 110.448156134962503, -6.985542933104268 ], [ 110.433670801006059, -6.985544716398206 ], [ 110.433663614483791, -6.990422891520559 ], [ 110.430045200519345, -6.997929528705722 ], [ 110.437672795596811, -7.002886036496103 ], [ 110.437101467076104, -7.005881849452549 ], [ 110.438249514009229, -7.006112775902308 ], [ 110.438909775743056, -7.002734462114828 ], [ 110.439006793793737, -7.002656891677129 ], [ 110.443700239624974, -7.003800567504909 ] ] ] } },
{ "type": "Feature", "properties": { "OBJECTID": 2, "Nama": "Rute Koridor F2A Menuju Terboyo", "SymbolID": null, "SHAPE_Length": 13952.75963994178, "layer": "default — Rute_Koridor_F2A", "path": "C:\\Users\\LENOVO\\Documents\\ArcGIS\\Packages\\Rute_Koridor_1M_be1f0d\\commondata\\default.gdb|layername=Rute_Koridor_F2A", "koridor_id": "F2A", "route_id": "F2A_5", "nama_koridor": "Rute Koridor F2A Menuju Terboy", "arah_balik": false }, "geometry": { "type": "MultiLineString", "coordinates": [ [ [ 110.460178288409878, -7.00557067810966 ], [ 110.467502252921307, -7.008665441739043 ], [ 110.467406133185875, -7.008967694993826 ], [ 110.465782877467475, -7.013769839870397 ], [ 110.466929127770044, -7.015346173700536 ], [ 110.465596926203688, -7.019250430042206 ], [ 110.466644361824976, -7.020001141939868 ], [ 110.46501571621485, -7.022781975101594 ], [ 110.468356550756482, -7.024204927865489 ], [ 110.472163610930593, -7.016322463752942 ], [ 110.472266018872972, -7.008063609453284 ], [ 110.465119022472521, -6.999355232238924 ], [ 110.465787369043895, -6.994926531659178 ], [ 110.47216540756115, -6.994947039127316 ], [ 110.474077022485758, -6.98419386928751 ], [ 110.474268363641301, -6.98396649859811 ], [ 110.475094440003517, -6.983550027432122 ] ], [ [ 110.475094440003517, -6.983550027432122 ], [ 110.47874646533262, -6.981708835402838 ], [ 110.479035722854107, -6.981941557112634 ], [ 110.475315799262546, -6.983742694399801 ], [ 110.475094440003517, -6.983550027432122 ] ], [ [ 110.475094440003517, -6.983550027432122 ], [ 110.467034230658271, -6.976534536997659 ], [ 110.465503501414148, -6.955590661747222 ], [ 110.463406833540986, -6.956114983385894 ], [ 110.463404138595124, -6.952961911102713 ] ] ] } },
{ "type": "Feature", "properties": { "OBJECTID": 1, "Nama": "Rute Koridor F2B Menuju Terboyo", "SymbolID": null, "SHAPE_Length": 17450.76498689186, "layer": "default — Rute_Koridor_F2B", "path": "C:\\Users\\LENOVO\\Documents\\ArcGIS\\Packages\\Rute_Koridor_1M_be1f0d\\commondata\\default.gdb|layername=Rute_Koridor_F2B", "koridor_id": "F2B", "route_id": "F2B_6", "nama_koridor": "Rute Koridor F2B Menuju Terboy", "arah_balik": true }, "geometry": { "type": "MultiLineString", "coordinates": [ [ [ 110.460178288409878, -7.005777531289107 ], [ 110.454922245682482, -7.003561879314341 ], [ 110.458160672281736, -6.990647584158132 ], [ 110.457445227039997, -6.989785488743103 ] ], [ [ 110.443726039239948, -7.003842586507113 ], [ 110.443428301622177, -7.00480656880205 ], [ 110.4435558623925, -7.004808352022423 ], [ 110.443810085617912, -7.003862352653863 ], [ 110.443726039239948, -7.003842586507113 ] ], [ [ 110.443726039239948, -7.003842586507113 ], [ 110.439006793793737, -7.002732678886527 ], [ 110.438339345537628, -7.006187670942509 ], [ 110.437006245656008, -7.005960310961821 ], [ 110.437580269122549, -7.002959148827135 ], [ 110.429674196307033, -6.997854632339691 ], [ 110.431574133132941, -6.994099990780981 ], [ 110.431576828078775, -6.985468034752479 ], [ 110.448060913542363, -6.985468034752479 ], [ 110.448060015227099, -6.973455610601494 ], [ 110.443580116905196, -6.972705715529749 ], [ 110.444629349157026, -6.965574073175811 ], [ 110.441675688502869, -6.960466473711102 ], [ 110.463022354599389, -6.955811804278455 ], [ 110.463022354599389, -6.952961019393777 ] ], [ [ 110.457445227039997, -6.989785488743103 ], [ 110.457398900920793, -6.989821927347843 ], [ 110.448152541701376, -6.989747029681666 ], [ 110.448056421965944, -6.989821927347843 ], [ 110.443726039239948, -7.003842586507113 ] ], [ [ 110.457445227039997, -6.989785488743103 ], [ 110.45635146529952, -6.988467526030262 ], [ 110.456540111509184, -6.988320405176824 ], [ 110.457589343761043, -6.989672132003453 ], [ 110.457445227039997, -6.989785488743103 ] ] ] } },
{ "type": "Feature", "properties": { "OBJECTID": 2, "Nama": "Rute Koridor F2B Menuju ADA Majapahit B", "SymbolID": null, "SHAPE_Length": 13978.155200126692, "layer": "default — Rute_Koridor_F2B", "path": "C:\\Users\\LENOVO\\Documents\\ArcGIS\\Packages\\Rute_Koridor_1M_be1f0d\\commondata\\default.gdb|layername=Rute_Koridor_F2B", "koridor_id": "F2B", "route_id": "F2B_7", "nama_koridor": "Rute Koridor F2B Menuju ADA Ma", "arah_balik": false }, "geometry": { "type": "MultiLineString", "coordinates": [ [ [ 110.463593683120095, -6.952963694520647 ], [ 110.463593683120095, -6.955885815666866 ], [ 110.465598722834244, -6.95536416888554 ], [ 110.467126757132533, -6.976458745539646 ], [ 110.475126254737617, -6.983441316465596 ], [ 110.47874646533262, -6.981634828091543 ], [ 110.479125554382506, -6.98193977380496 ], [ 110.47455312958634, -6.984187627740657 ], [ 110.474362686746119, -6.984410540076915 ], [ 110.472552581448625, -6.995160138416759 ], [ 110.465984100091148, -6.995152113759099 ], [ 110.465403788417589, -6.999281227722441 ], [ 110.472453766767359, -7.007994064339057 ], [ 110.472266018872972, -7.016391116035773 ], [ 110.46845446712247, -7.024202253146326 ], [ 110.468358347387053, -7.02427892842271 ], [ 110.46788493523232, -7.024580279967819 ], [ 110.46778701886636, -7.024510737320893 ], [ 110.464641118741383, -7.023228654351589 ], [ 110.46654734377428, -7.020001141939868 ], [ 110.465501704783549, -7.019250430042206 ], [ 110.466833906349905, -7.015347065290572 ], [ 110.465689452677935, -7.013769839870397 ], [ 110.467311810081043, -7.008965020187115 ], [ 110.467310911765779, -7.00874211957443 ], [ 110.460178288409878, -7.005777531289107 ] ] ] } },
{ "type": "Feature", "properties": { "OBJECTID": 1, "Nama": "Rute Koridor F3 Menuju Penggaron", "SymbolID": null, "SHAPE_Length": 27502.823815765052, "layer": "default — Rute_Koridor_F3", "path": "C:\\Users\\LENOVO\\Documents\\ArcGIS\\Packages\\Rute_Koridor_1M_be1f0d\\commondata\\default.gdb|layername=Rute_Koridor_F3", "koridor_id": "F3", "route_id": "F3_8", "nama_koridor": "Rute Koridor F3 Menuju Penggar", "arah_balik": true }, "geometry": { "type": "MultiLineString", "coordinates": [ [ [ 110.41117968123757, -7.0738272297628 ], [ 110.411180579552834, -7.073304823609042 ], [ 110.411180579552834, -7.073221916093466 ], [ 110.411561465233319, -7.073220133135951 ], [ 110.420900350927013, -7.075930220569504 ], [ 110.420991979086011, -7.075929329096011 ], [ 110.424145065733285, -7.070449408882219 ], [ 110.418038318431826, -7.069624785359227 ], [ 110.418327575953299, -7.066248716735261 ], [ 110.4162353996566, -7.065569399180884 ], [ 110.417471481487539, -7.061590646532529 ], [ 110.417560414700674, -7.061590646532529 ], [ 110.437101467076104, -7.068497054590914 ], [ 110.438054579592574, -7.063912109777838 ], [ 110.435866283560443, -7.062716611151827 ], [ 110.435100020623111, -7.058444528171225 ], [ 110.43516310481391, -7.058279495887136 ] ], [ [ 110.43516310481391, -7.058279495887136 ], [ 110.435286870202191, -7.058437396113225 ], [ 110.435435990539361, -7.05915951642716 ], [ 110.449680575999636, -7.060467353682243 ], [ 110.462939331402524, -7.057270816388937 ] ], [ [ 110.43516310481391, -7.058279495887136 ], [ 110.436116913524728, -7.055784262914191 ], [ 110.432222716768067, -7.054528120285349 ], [ 110.43516310481391, -7.058279495887136 ] ], [ [ 110.462939331402524, -7.057270816388937 ], [ 110.46340324027986, -7.057158972942172 ], [ 110.46340324027986, -7.059112266613909 ], [ 110.462446534502277, -7.059113158119878 ], [ 110.462448331132833, -7.057392548429565 ], [ 110.462939331402524, -7.057270816388937 ] ], [ [ 110.462939331402524, -7.057270816388937 ], [ 110.46368890454022, -7.057084977629585 ], [ 110.464548592267107, -7.05265682696906 ], [ 110.465499908152992, -7.051685962426472 ], [ 110.45758664881518, -7.033889093441605 ], [ 110.461020908146381, -7.021578346244794 ], [ 110.461116129566477, -7.0213509937777 ], [ 110.461214944247729, -7.021351885356232 ], [ 110.468263125966956, -7.024278036849787 ], [ 110.468837149433497, -7.036441606870628 ], [ 110.479603458113658, -7.037645197226424 ], [ 110.479603458113658, -7.037717412548534 ], [ 110.479603458113658, -7.037726730107358 ] ], [ [ 110.479603458113658, -7.037726730107358 ], [ 110.479603458113658, -7.037791410953322 ], [ 110.479219877487353, -7.043424170549354 ], [ 110.479126452697813, -7.043425062085517 ], [ 110.479509135008826, -7.03771830409563 ], [ 110.479603458113658, -7.037726730107358 ] ], [ [ 110.479603458113658, -7.037726730107358 ], [ 110.485417354632474, -7.038246099687767 ], [ 110.489610690378754, -7.01789700577023 ], [ 110.4928500152933, -7.01925310478984 ], [ 110.493635505770996, -7.019593977176524 ] ], [ [ 110.493635505770996, -7.019593977176524 ], [ 110.493708804704909, -7.019625786142414 ], [ 110.498091684976146, -7.021502562101442 ], [ 110.498282127816367, -7.021650564064044 ], [ 110.497422440089466, -7.025856118221227 ], [ 110.497328116984633, -7.025856118221227 ], [ 110.498239906998023, -7.021652347219925 ], [ 110.498091684976146, -7.021535550494798 ], [ 110.493612684969506, -7.019660557832355 ], [ 110.493635505770996, -7.019593977176524 ] ], [ [ 110.493635505770996, -7.019593977176524 ], [ 110.494088792070087, -7.018271471377661 ], [ 110.493992672334699, -7.01819925303395 ], [ 110.493037763187672, -7.017898788940496 ], [ 110.492947033343995, -7.017898788940496 ], [ 110.492945236713396, -7.017823004197864 ], [ 110.492976677748331, -7.01744853822962 ] ] ] } },
{ "type": "Feature", "properties": { "OBJECTID": 2, "Nama": "Rute Koridor F3 Menuju Terminal Banyumanik", "SymbolID": null, "SHAPE_Length": 27195.797401076336, "layer": "default — Rute_Koridor_F3", "path": "C:\\Users\\LENOVO\\Documents\\ArcGIS\\Packages\\Rute_Koridor_1M_be1f0d\\commondata\\default.gdb|layername=Rute_Koridor_F3", "koridor_id": "F3", "route_id": "F3_9", "nama_koridor": "Rute Koridor F3 Menuju Termina", "arah_balik": false }, "geometry": { "type": "MultiLineString", "coordinates": [ [ [ 110.43540840237867, -7.059200295686634 ], [ 110.435957911719456, -7.062649748721303 ], [ 110.438155190904382, -7.063842573029662 ], [ 110.437196688496229, -7.068505969469441 ], [ 110.437101467076104, -7.068581745929977 ], [ 110.417564906277093, -7.061663749623508 ], [ 110.416326129500277, -7.065498971188354 ], [ 110.416421350920416, -7.065566724700345 ], [ 110.418422797373438, -7.066176505861567 ], [ 110.418134438167229, -7.06954811758391 ], [ 110.424235795576962, -7.0703789816334 ], [ 110.420998267293001, -7.076008670231964 ], [ 110.411561465233319, -7.073302149173314 ], [ 110.411274902657667, -7.073302149173314 ], [ 110.411275800972973, -7.073828121240386 ] ], [ [ 110.43540840237867, -7.059200295686634 ], [ 110.43528956514804, -7.059188936119768 ], [ 110.435100020623111, -7.058444528171225 ], [ 110.43516310481391, -7.058279495887136 ] ], [ [ 110.43516310481391, -7.058279495887136 ], [ 110.435286870202191, -7.058437396113225 ], [ 110.43540840237867, -7.059200295686634 ] ], [ [ 110.43516310481391, -7.058279495887136 ], [ 110.436116913524728, -7.055784262914191 ], [ 110.432222716768067, -7.054528120285349 ], [ 110.43516310481391, -7.058279495887136 ] ], [ [ 110.493015305305562, -7.01744853822962 ], [ 110.492992847423466, -7.017823895783156 ], [ 110.493042254764092, -7.017823895783156 ], [ 110.494184013490226, -7.018197469864836 ], [ 110.493707906389631, -7.019581207048966 ], [ 110.498091684976146, -7.021465115814293 ], [ 110.49832884021113, -7.021652347219925 ], [ 110.497422440089466, -7.025856118221227 ], [ 110.497328116984633, -7.025856118221227 ], [ 110.498186906396242, -7.021655021953753 ], [ 110.498091684976146, -7.021577454666729 ], [ 110.493612684969506, -7.019703353754855 ], [ 110.492754793873175, -7.019324431387597 ], [ 110.489702318537738, -7.018049466803916 ], [ 110.489610690378754, -7.018049466803916 ], [ 110.485512576052614, -7.038320989554261 ], [ 110.479603458113658, -7.037791410953322 ], [ 110.479219877487353, -7.043424170549354 ], [ 110.479126452697813, -7.043425062085517 ], [ 110.479509135008826, -7.03771830409563 ], [ 110.468543400335591, -7.036516497028252 ], [ 110.467975665076025, -7.024580279967819 ], [ 110.467882240286457, -7.024432278937515 ], [ 110.46121045267131, -7.021577454666729 ], [ 110.461116129566477, -7.021576563088629 ], [ 110.457685463496432, -7.033885527223728 ], [ 110.46559782451898, -7.051681504825164 ], [ 110.464642017056647, -7.052655043932285 ], [ 110.463781431014453, -7.057084977629585 ], [ 110.46340324027986, -7.057232076733337 ], [ 110.46340324027986, -7.059112266613909 ], [ 110.462446534502277, -7.059113158119878 ], [ 110.46245012776339, -7.057442472945945 ], [ 110.449698542305327, -7.060566310542919 ], [ 110.43540840237867, -7.059200295686634 ] ] ] } },
{ "type": "Feature", "properties": { "OBJECTID": 1, "Nama": "Rute Koridor F4A Menuju BNI UNNES A", "SymbolID": null, "SHAPE_Length": 8171.8006523753493, "layer": "default — Rute_Koridor_F4A", "path": "C:\\Users\\LENOVO\\Documents\\ArcGIS\\Packages\\Rute_Koridor_1M_be1f0d\\commondata\\default.gdb|layername=Rute_Koridor_F4A", "koridor_id": "F4A", "route_id": "F4A_10", "nama_koridor": "Rute Koridor F4A Menuju BNI UN", "arah_balik": true }, "geometry": { "type": "MultiLineString", "coordinates": [ [ [ 110.361374386940128, -7.082911296837735 ], [ 110.360958466963567, -7.074052773533875 ], [ 110.360957568648317, -7.073975215016338 ], [ 110.362006800900147, -7.073903896827789 ], [ 110.377160481427964, -7.079382884568957 ], [ 110.37744434905774, -7.079382884568957 ], [ 110.385924445339825, -7.074278317194772 ], [ 110.385926241970424, -7.074205216099331 ], [ 110.391740138489226, -7.05836250949767 ], [ 110.391548797333698, -7.055964348377218 ], [ 110.390592091556115, -7.045975739990165 ], [ 110.394122470622705, -7.045441712467619 ], [ 110.39421769204283, -7.045528191089804 ], [ 110.395266025979396, -7.048744827761351 ], [ 110.395266025979396, -7.04905062105001 ] ] ] } },
{ "type": "Feature", "properties": { "OBJECTID": 2, "Nama": "Rute Koridor F4A Menuju Terminal Gunung Pati", "SymbolID": null, "SHAPE_Length": 7954.9104247500982, "layer": "default — Rute_Koridor_F4A", "path": "C:\\Users\\LENOVO\\Documents\\ArcGIS\\Packages\\Rute_Koridor_1M_be1f0d\\commondata\\default.gdb|layername=Rute_Koridor_F4A", "koridor_id": "F4A", "route_id": "F4_11", "nama_koridor": "Rute Koridor F4A Menuju Termin", "arah_balik": false }, "geometry": { "type": "MultiLineString", "coordinates": [ [ [ 110.395266025979396, -7.04905062105001 ], [ 110.395266025979396, -7.049270827753871 ], [ 110.394503356303161, -7.057000284185004 ], [ 110.398888033204955, -7.058437396113225 ], [ 110.388499915259416, -7.07525270020261 ], [ 110.388405592154584, -7.075253591677444 ], [ 110.386022361705813, -7.074353201231717 ], [ 110.385924445339825, -7.074353201231717 ], [ 110.377445247373018, -7.079459550711079 ], [ 110.377158684797408, -7.079459550711079 ], [ 110.362000512693157, -7.073976997970905 ], [ 110.361102197409039, -7.074051882056722 ], [ 110.36153249043015, -7.082911296837735 ] ] ] } },
{ "type": "Feature", "properties": { "OBJECTID": 1, "Nama": "Rute Koridor F4B Menuju SPBU BSB A", "SymbolID": null, "SHAPE_Length": 9238.7074720600503, "layer": "default — Rute_Koridor_F4B", "path": "C:\\Users\\LENOVO\\Documents\\ArcGIS\\Packages\\Rute_Koridor_1M_be1f0d\\commondata\\default.gdb|layername=Rute_Koridor_F4B", "koridor_id": "F4B", "route_id": "F4B_12", "nama_koridor": "Rute Koridor F4B Menuju SPBU B", "arah_balik": true }, "geometry": { "type": "MultiLineString", "coordinates": [ [ [ 110.361342047589886, -7.082911296837735 ], [ 110.360910856253511, -7.074052773533875 ], [ 110.36086324554347, -7.074056339442401 ], [ 110.334747423603517, -7.068647716014901 ], [ 110.336848583053097, -7.042971269963975 ], [ 110.328841898925745, -7.039068996009744 ], [ 110.328654151031373, -7.038919216506137 ], [ 110.33383922685131, -7.027946844895755 ] ] ] } },
{ "type": "Feature", "properties": { "OBJECTID": 2, "Nama": "Rute Koridor F4B Menuju Terminal Gunung Pati", "SymbolID": null, "SHAPE_Length": 9966.0268613447406, "layer": "default — Rute_Koridor_F4B", "path": "C:\\Users\\LENOVO\\Documents\\ArcGIS\\Packages\\Rute_Koridor_1M_be1f0d\\commondata\\default.gdb|layername=Rute_Koridor_F4B", "koridor_id": "F4B", "route_id": "F4B_13", "nama_koridor": "Rute Koridor F4B Menuju Termin", "arah_balik": false }, "geometry": { "type": "MultiLineString", "coordinates": [ [ [ 110.33383743022074, -7.027944170198122 ], [ 110.335233412172258, -7.025030523776353 ], [ 110.335416668490197, -7.02518119932975 ], [ 110.328843695556301, -7.038920999595776 ], [ 110.32893981529169, -7.038994106264 ], [ 110.336942007842637, -7.042899055459695 ], [ 110.334845339969519, -7.068571939565182 ], [ 110.361052790068413, -7.074047424671001 ], [ 110.361483083089524, -7.082907730997642 ] ] ] } }
]
}
