{
"type": "FeatureCollection",
"name": "rute_koridor",
"crs": { "type": "name", "properties": { "name": "urn:ogc:def:crs:OGC:1.3:CRS84" } },
"features": [
{ "type": "Feature", "properties": { "OBJECTID": 1, "Rute": "Koridor 1 Menuju Mangkang", "SymbolID": null, "SHAPE_Length": 27291.108473372151, "Nama": "Koridor 1 Menuju Mangkang", "layer": "default — Rute_Koridor_1", "path": "C:\\Users\\LENOVO\\Documents\\ArcGIS\\Packages\\Rute_Koridor_1M_be1f0d\\commondata\\default.gdb|layername=Rute_Koridor_1", "koridor_id": "K1", "route_id": "K1_0", "nama_koridor": "Koridor 1 Menuju Mangkang", "headway_menit": 10, "arah_balik": true }, "geometry": { "type": "MultiLineString", "coordinates": [ [ [ 110.492946135028703, -7.01744853822962 ], [ 110.492755692188467, -7.019175537102345 ], [ 110.492754793873175, -7.019251321624731 ], [ 110.492658674137772, -7.019250430042206 ], [ 110.423624497416029, -6.990457362231391 ] ], [ [ 110.423624497416029, -6.990457362231391 ], [ 110.423595296779368, -6.990445182461656 ], [ 110.423109308210684, -6.991416174823705 ], [ 110.421953176440027, -6.990937366170082 ], [ 110.422809270905773, -6.98922452896214 ], [ 110.423958216154176, -6.989765754099318 ], [ 110.423624497416029, -6.990457362231391 ] ], [ [ 110.423624497416029, -6.990457362231391 ], [ 110.423130867777488, -6.9914803725947 ], [ 110.421874124695009, -6.990973031636054 ], [ 110.422431080171165, -6.989852243066479 ], [ 110.409731229588601, -6.984459592368069 ] ], [ [ 110.409731229588601, -6.984459592368069 ], [ 110.409118047660527, -6.984199219184767 ], [ 110.411646805185313, -6.978498868976622 ], [ 110.41575030940318, -6.978257228946269 ], [ 110.409731229588601, -6.984459592368069 ] ], [ [ 110.409731229588601, -6.984459592368069 ], [ 110.409698359334044, -6.984493463438898 ], [ 110.400888581342684, -6.980813613646911 ], [ 110.400506797346935, -6.980811830334937 ], [ 110.390595684817242, -6.982612080318961 ], [ 110.366294459751245, -6.98696956608541 ], [ 110.363913025933073, -6.98741806292948 ], [ 110.36353393688313, -6.987421629503043 ], [ 110.288818359757087, -6.96924512593377 ], [ 110.288818359757087, -6.969026664769382 ] ] ] } },
{ "type": "Feature", "properties": { "OBJECTID": 2, "Rute": "Koridor 1 Menuju Penggaron", "SymbolID": null, "SHAPE_Length": 26304.557736457318, "Nama": "Koridor 1 Menuju Penggaron", "layer": "default — Rute_Koridor_1", "path": "C:\\Users\\LENOVO\\Documents\\ArcGIS\\Packages\\Rute_Koridor_1M_be1f0d\\commondata\\default.gdb|layername=Rute_Koridor_1", "koridor_id": "K1", "route_id": "K1_1", "nama_koridor": "Koridor 1 Menuju Penggaron", "headway_menit": 10, "arah_balik": false }, "geometry": { "type": "MultiLineString", "coordinates": [ [ [ 110.288913581177184, -6.969025773090937 ], [ 110.288913581177184, -6.969173791687207 ], [ 110.289011497543186, -6.969252259357836 ], [ 110.363531241937309, -6.987341381590996 ], [ 110.363719888146974, -6.987344948165144 ], [ 110.366295358066537, -6.986891993028981 ], [ 110.390594786501978, -6.982539856455942 ], [ 110.400603815397631, -6.980738714537909 ], [ 110.400884988081557, -6.980738714537909 ], [ 110.409074030211571, -6.984180494544135 ], [ 110.411602787736371, -6.978424861157696 ], [ 110.415826666202321, -6.978222454171501 ], [ 110.409831309996108, -6.984439072848279 ], [ 110.422467012782533, -6.98978804507176 ], [ 110.422802982698784, -6.989160330881226 ], [ 110.424014810017084, -6.989748812959566 ], [ 110.423678840100806, -6.990409516955393 ], [ 110.492658674137772, -7.019215658321616 ], [ 110.492723352838226, -7.019215658321616 ], [ 110.492723352838226, -7.019174645519676 ], [ 110.492911999047891, -7.01744853822962 ] ] ] } },
{ "type": "Feature", "properties": { "OBJECTID": 1, "Rute": null, "SymbolID": null, "SHAPE_Length": 15586.721702746256, "Nama": "Rute Koridor Khusus 1M Menuju Mangkang(Malam)", "layer": "default — Rute_Koridor_1M", "path": "C:\\Users\\LENOVO\\Documents\\ArcGIS\\Packages\\Rute_Koridor_1M_be1f0d\\commondata\\default.gdb|layername=Rute_Koridor_1M", "koridor_id": "M", "route_id": "M_2", "nama_koridor": "Rute Koridor Khusus 1M Menuju Mangkang(Malam)", "headway_menit": 10, "arah_balik": true }, "geometry": { "type": "MultiLineString", "coordinates": [ [ [ 110.423324903878878, -6.989679265116187 ], [ 110.422929645153857, -6.989489345952709 ], [ 110.422639489317078, -6.990051078466273 ], [ 110.417469684856982, -6.987868342628345 ], [ 110.41737536175215, -6.987945023880356 ], [ 110.417185817227178, -6.987945023880356 ], [ 110.400888581342684, -6.981037419246474 ], [ 110.40051039060809, -6.981038310902048 ], [ 110.400126809981757, -6.981189000667438 ], [ 110.390595684817242, -6.982916133743387 ], [ 110.3837083015339, -6.984206352380969 ], [ 110.383487315974023, -6.984060121836544 ], [ 110.366295358066537, -6.987117579007936 ], [ 110.36381870282824, -6.987569642282476 ], [ 110.363536631828993, -6.987501877401315 ], [ 110.288725833282825, -6.969252259357836 ], [ 110.288725833282825, -6.969026664769382 ] ] ] } },
{ "type": "Feature", "properties": { "OBJECTID": 2, "Rute": null, "SymbolID": null, "SHAPE_Length": 15901.41011712372, "Nama": "Rute Koridor Khusus 1M Menuju Simpang Lima(Malam)", "layer": "default — Rute_Koridor_1M", "path": "C:\\Users\\LENOVO\\Documents\\ArcGIS\\Packages\\Rute_Koridor_1M_be1f0d\\commondata\\default.gdb|layername=Rute_Koridor_1M", "koridor_id": "M", "route_id": "M_3", "nama_koridor": "Rute Koridor Khusus 1M Menuju Simpang Lima(Malam)", "headway_menit": 10, "arah_balik": false }, "geometry": { "type": "MultiLineString", "coordinates": [ [ [ 110.28900610765146, -6.969026664769382 ], [ 110.289008802597323, -6.969172900009042 ], [ 110.289111210539701, -6.969252259357836 ], [ 110.36343602051717, -6.987196935314603 ], [ 110.366201034961705, -6.986743980035003 ], [ 110.366295358066537, -6.986596858639142 ], [ 110.383543909836902, -6.983585763902086 ], [ 110.383734352677166, -6.983362851172746 ], [ 110.400411575926839, -6.980512233825826 ], [ 110.400982006132253, -6.980667382041988 ], [ 110.409030911077963, -6.984061013486357 ], [ 110.409080318418589, -6.983946882298165 ], [ 110.410178059695781, -6.984350799581225 ], [ 110.422858678246399, -6.989706905926984 ], [ 110.422242433961515, -6.990840177761468 ], [ 110.423031154780972, -6.99111391020004 ], [ 110.423678840100806, -6.989853134705212 ], [ 110.423324903878878, -6.989679265116187 ] ] ] } },
{ "type": "Feature", "properties": { "OBJECTID": 1, "Rute": null, "SymbolID": null, "SHAPE_Length": 25884.316620159014, "Nama": "Rute Koridor 2 Menuju Terboyo", "layer": "default — Rute_Koridor_2", "path": "C:\\Users\\LENOVO\\Documents\\ArcGIS\\Packages\\Rute_Koridor_1M_be1f0d\\commondata\\default.gdb|layername=Rute_Koridor_2", "koridor_id": "K2", "route_id": "K2_4", "nama_koridor": "Rute Koridor 2 Menuju Terboyo", "headway_menit": 10, "arah_balik": true }, "geometry": { "type": "MultiLineString", "coordinates": [ [ [ 110.404032684837105, -7.12052135010441 ], [ 110.404319247412758, -7.12052224149151 ], [ 110.413081414694048, -7.108960804915844 ], [ 110.408991385205439, -7.103405506892131 ], [ 110.416135686660056, -7.008367646305127 ], [ 110.407940356323024, -7.00394081450294 ], [ 110.406129352710252, -6.991470564602499 ], [ 110.409316575338295, -6.984947312546664 ], [ 110.409072233581014, -6.984474738810046 ], [ 110.411695314210647, -6.978560393540056 ] ], [ [ 110.411695314210647, -6.978560393540056 ], [ 110.415609273903542, -6.978325886827347 ] ], [ [ 110.415609273903542, -6.978325886827347 ], [ 110.40965434188513, -6.984390032146411 ], [ 110.409194404459669, -6.984202785782882 ], [ 110.411695314210647, -6.978560393540056 ] ], [ [ 110.415609273903542, -6.978325886827347 ], [ 110.422614336489119, -6.971052553783403 ], [ 110.422330468859357, -6.969930825825092 ], [ 110.422042109653148, -6.968876862769234 ], [ 110.422043906283704, -6.968728844079234 ], [ 110.422139127703844, -6.968649484641822 ], [ 110.4375775741767, -6.9603166689769 ], [ 110.437774305223925, -6.960168647585453 ], [ 110.438054579592574, -6.960165080804339 ], [ 110.439489189101309, -6.960844552113329 ], [ 110.462927133179292, -6.955735117767312 ], [ 110.462919946656996, -6.952956560848972 ] ] ] } },
{ "type": "Feature", "properties": { "OBJECTID": 2, "Rute": null, "SymbolID": null, "SHAPE_Length": 26918.26474654015, "Nama": "Rute Koridor 2 Menuju Ungaran", "layer": "default — Rute_Koridor_2", "path": "C:\\Users\\LENOVO\\Documents\\ArcGIS\\Packages\\Rute_Koridor_1M_be1f0d\\commondata\\default.gdb|layername=Rute_Koridor_2", "koridor_id": "K2", "route_id": "K2_5", "nama_koridor": "Rute Koridor 2 Menuju Ungaran", "headway_menit": 10, "arah_balik": false }, "geometry": { "type": "MultiLineString", "coordinates": [ [ [ 110.463117576019499, -6.952964586229578 ], [ 110.463117576019499, -6.95588670737025 ], [ 110.440066805829005, -6.961069258943958 ], [ 110.439769463469943, -6.961227088677307 ], [ 110.433956465266419, -6.965414461534325 ], [ 110.43395826189699, -6.982610297013809 ], [ 110.431383690292691, -6.982614755276609 ], [ 110.43138548692329, -6.970152853273229 ], [ 110.422711354539814, -6.971052553783403 ], [ 110.409709139117467, -6.984407865129503 ], [ 110.406224574130349, -6.991470564602499 ], [ 110.406703376176807, -6.994476258762369 ], [ 110.408035577743163, -7.003860569429873 ], [ 110.416135686660056, -7.00829096840813 ], [ 110.416178805793692, -7.008356947064447 ], [ 110.409083013364409, -7.103405506892131 ], [ 110.413181127690606, -7.108959913506293 ], [ 110.404315654151603, -7.120597118003467 ], [ 110.404028193260686, -7.120597118003467 ] ] ] } },
{ "type": "Feature", "properties": { "OBJECTID": 1, "Rute": null, "SymbolID": null, "SHAPE_Length": 17645.008067736573, "Nama": "Rute Koridor 3A Menuju Elisabeth (Kagok 2)", "layer": "default — Rute_Koridor_3A", "path": "C:\\Users\\LENOVO\\Documents\\ArcGIS\\Packages\\Rute_Koridor_1M_be1f0d\\commondata\\default.gdb|layername=Rute_Koridor_3A", "koridor_id": "K3A", "route_id": "K3A_6", "nama_koridor": "Rute Koridor 3A Menuju Elisabeth (Kagok 2)", "headway_menit": 10, "arah_balik": false }, "geometry": { "type": "MultiLineString", "coordinates": [ [ [ 110.425379350933653, -6.964599460462373 ], [ 110.425379350933653, -6.967300372150682 ], [ 110.430812361772013, -6.964372971948032 ], [ 110.430521307619927, -6.95356203084621 ], [ 110.426332463450109, -6.948525638111192 ], [ 110.426425888239635, -6.94845697586852 ], [ 110.430617427355358, -6.95356203084621 ], [ 110.430907583192109, -6.964297178523135 ], [ 110.43776801701695, -6.960470040489891 ], [ 110.437958459857185, -6.96046736540582 ], [ 110.439388577789487, -6.961134352569205 ], [ 110.432229004975056, -6.966249078232065 ], [ 110.432240683073744, -6.969241559221713 ], [ 110.433575579585948, -6.969857708329203 ], [ 110.433575579585948, -6.990427349708864 ], [ 110.418317694485168, -7.021351885356232 ], [ 110.415272405671999, -7.023011110019969 ], [ 110.414516024202783, -7.033437075105756 ], [ 110.414039018786937, -7.033440641327078 ], [ 110.414801688463143, -7.023086893917538 ], [ 110.415361338885148, -7.015446923362327 ], [ 110.415628138524525, -7.011947420127226 ] ] ] } },
{ "type": "Feature", "properties": { "OBJECTID": 2, "Rute": null, "SymbolID": null, "SHAPE_Length": 10609.737335614109, "Nama": "Rute Koridor 3A Menuju Pelabuhan", "layer": "default — Rute_Koridor_3A", "path": "C:\\Users\\LENOVO\\Documents\\ArcGIS\\Packages\\Rute_Koridor_1M_be1f0d\\commondata\\default.gdb|layername=Rute_Koridor_3A", "koridor_id": "K3A", "route_id": "K3A_7", "nama_koridor": "Rute Koridor 3A Menuju Pelabuhan", "headway_menit": 10, "arah_balik": true }, "geometry": { "type": "MultiLineString", "coordinates": [ [ [ 110.415628138524525, -7.011947420127226 ], [ 110.4158832600652, -7.008446998999243 ], [ 110.419661574150226, -6.99770662281906 ], [ 110.414034527210518, -6.99575307107442 ], [ 110.421472577763026, -6.993123654202217 ], [ 110.42223434912394, -6.991473239509463 ], [ 110.422004380411209, -6.990901700701386 ], [ 110.422822974705454, -6.989266880966295 ] ], [ [ 110.422822974705454, -6.989266880966295 ], [ 110.422823643950323, -6.989265544398124 ], [ 110.423911503759413, -6.989784478516254 ], [ 110.423096731796676, -6.991356435223327 ], [ 110.422043906283704, -6.990926666529766 ], [ 110.42283172878787, -6.989296751792645 ], [ 110.422822974705454, -6.989266880966295 ] ], [ [ 110.422822974705454, -6.989266880966295 ], [ 110.418668935761275, -6.975091822197025 ], [ 110.415436797368997, -6.97844715267065 ], [ 110.409646257047584, -6.984350799581225 ], [ 110.409250998322577, -6.984159986603543 ], [ 110.411751908073555, -6.978597843270362 ], [ 110.41184892612425, -6.978260795589711 ], [ 110.413562911686341, -6.974510455025928 ], [ 110.413760541048859, -6.974056595797217 ], [ 110.422515521807867, -6.969702556531847 ], [ 110.422330468859357, -6.968960680560947 ], [ 110.422330468859357, -6.968814445255044 ], [ 110.425285926144113, -6.967300372150682 ], [ 110.425285027828807, -6.964597677088677 ] ] ] } },
{ "type": "Feature", "properties": { "OBJECTID": 1, "Rute": null, "SymbolID": null, "SHAPE_Length": 18365.981836267059, "Nama": "Rute Koridor 3B Menuju Elisabeth", "layer": "default — Rute_Koridor_3B", "path": "C:\\Users\\LENOVO\\Documents\\ArcGIS\\Packages\\Rute_Koridor_1M_be1f0d\\commondata\\default.gdb|layername=Rute_Koridor_3B", "koridor_id": "K3B", "route_id": "K3B_8", "nama_koridor": "Rute Koridor 3B Menuju Elisabeth", "headway_menit": 10, "arah_balik": false }, "geometry": { "type": "MultiLineString", "coordinates": [ [ [ 110.417414238142683, -6.987544380249244 ], [ 110.422655658992213, -6.989756837710045 ], [ 110.422858678246399, -6.989327959185085 ], [ 110.423852214950642, -6.989801419654714 ], [ 110.423064392446477, -6.991302045431246 ], [ 110.422520911699579, -6.991095185836376 ], [ 110.421758242023344, -6.993196768062363 ], [ 110.422809270905773, -6.993725505759171 ], [ 110.422714049485677, -6.993951088439228 ], [ 110.421672003756086, -6.993425025893607 ], [ 110.416276722159651, -7.008064501057226 ], [ 110.416326129500277, -7.008364971494972 ] ], [ [ 110.417414238142683, -6.987544380249244 ], [ 110.417374463436843, -6.987796119577125 ], [ 110.417184020596608, -6.987796119577125 ], [ 110.409216862341779, -6.984447097689901 ], [ 110.411835451394992, -6.978654909520335 ], [ 110.415292168608275, -6.978428427799828 ], [ 110.409595053076359, -6.984243801659414 ], [ 110.417414238142683, -6.987544380249244 ] ], [ [ 110.425469182462052, -6.964588760220068 ], [ 110.425474572353778, -6.967003442046138 ], [ 110.430716242036624, -6.964148266699703 ], [ 110.430430577776249, -6.953562922554038 ], [ 110.426237242029984, -6.948525638111192 ], [ 110.426427684870205, -6.94837761300411 ], [ 110.430716242036624, -6.953561139138412 ], [ 110.431001906296927, -6.96399578807707 ], [ 110.43776801701695, -6.96031399389192 ], [ 110.437958459857185, -6.96031399389192 ], [ 110.439769463469943, -6.961141486116638 ], [ 110.434051686686516, -6.965176381498909 ], [ 110.434034618696131, -6.985384219916051 ], [ 110.417756247432592, -6.985379761679649 ], [ 110.417414238142683, -6.987544380249244 ] ] ] } },
{ "type": "Feature", "properties": { "OBJECTID": 2, "Rute": null, "SymbolID": null, "SHAPE_Length": 12432.056071705741, "Nama": "Rute Koridor 3B Menuju Pelabuhan", "layer": "default — Rute_Koridor_3B", "path": "C:\\Users\\LENOVO\\Documents\\ArcGIS\\Packages\\Rute_Koridor_1M_be1f0d\\commondata\\default.gdb|layername=Rute_Koridor_3B", "koridor_id": "K3B", "route_id": "K3B_9", "nama_koridor": "Rute Koridor 3B Menuju Pelabuhan", "headway_menit": 10, "arah_balik": true }, "geometry": { "type": "MultiLineString", "coordinates": [ [ [ 110.415218134852452, -7.022902673048402 ], [ 110.414420802782686, -7.033363967562378 ], [ 110.414134240207034, -7.033361292895931 ], [ 110.414896909883268, -7.023075303439881 ], [ 110.415218134852452, -7.022902673048402 ] ], [ [ 110.415218134852452, -7.022902673048402 ], [ 110.418243134316626, -7.021276992754664 ], [ 110.431667557922481, -6.99410088241164 ], [ 110.431662168030755, -6.985468034752479 ], [ 110.431572336502356, -6.970003051633024 ], [ 110.422806575959939, -6.970912560854171 ], [ 110.422616133119675, -6.970749384329719 ], [ 110.422140026019093, -6.968876862769234 ], [ 110.422139127703844, -6.968745785979843 ], [ 110.425188908093418, -6.967150569598934 ], [ 110.425188908093418, -6.964596785401811 ] ], [ [ 110.416326129500277, -7.008364971494972 ], [ 110.415218134852452, -7.022902673048402 ] ] ] } },
{ "type": "Feature", "properties": { "OBJECTID": 1, "Rute": null, "SymbolID": null, "SHAPE_Length": 32147.705700927912, "Nama": "Rute Koridor 4 Menuju Cangkiran", "layer": "default — Rute_Koridor_4", "path": "C:\\Users\\LENOVO\\Documents\\ArcGIS\\Packages\\Rute_Koridor_1M_be1f0d\\commondata\\default.gdb|layername=Rute_Koridor_4", "koridor_id": "K4", "route_id": "K4_10", "nama_koridor": "Rute Koridor 4 Menuju Cangkiran", "headway_menit": 10, "arah_balik": true }, "geometry": { "type": "MultiLineString", "coordinates": [ [ [ 110.409796949436483, -6.984590043279235 ], [ 110.409763038034527, -6.984625427468472 ], [ 110.408969825638636, -6.984297300623379 ], [ 110.400885886396821, -6.980888512743957 ], [ 110.400509492292798, -6.980888512743957 ], [ 110.390595684817242, -6.982688762432891 ], [ 110.366294459751245, -6.987044464196638 ], [ 110.363917517509492, -6.987494744255353 ], [ 110.362947337002637, -6.987494744255353 ], [ 110.3523813526308, -6.989373432810316 ], [ 110.308832824287279, -7.080884112289552 ], [ 110.308349530664415, -7.088241305503842 ] ], [ [ 110.409796949436483, -6.984590043279235 ], [ 110.408987791944313, -6.984247368257189 ], [ 110.41156505849446, -6.978374036504198 ], [ 110.415933565721133, -6.978186787733145 ], [ 110.409796949436483, -6.984590043279235 ] ], [ [ 110.427178676447753, -6.966179526897316 ], [ 110.43776801701695, -6.960392463044822 ], [ 110.437963849748854, -6.960393354739678 ], [ 110.439584410521434, -6.961144161196901 ], [ 110.433861243846295, -6.965196890270771 ], [ 110.433863938792157, -6.98246317431757 ], [ 110.431478911712816, -6.982464065970428 ], [ 110.431478911712816, -6.970077060782685 ], [ 110.422806575959939, -6.970974978088934 ], [ 110.422425690279454, -6.97098300316136 ], [ 110.422148110856682, -6.970077952459095 ], [ 110.413943797366798, -6.974206396141346 ], [ 110.413753354526577, -6.974583571795704 ], [ 110.412228913489429, -6.978033422017254 ], [ 110.417188512173027, -6.977946930864591 ], [ 110.41765563612077, -6.985317346365562 ], [ 110.417279242016747, -6.987720329943487 ], [ 110.417188512173027, -6.987720329943487 ], [ 110.409796949436483, -6.984590043279235 ] ] ] } },
{ "type": "Feature", "properties": { "OBJECTID": 2, "Rute": null, "SymbolID": null, "SHAPE_Length": 26262.258755587663, "Nama": "Rute Koridor 4 Menuju Tawang", "layer": "default — Rute_Koridor_4", "path": "C:\\Users\\LENOVO\\Documents\\ArcGIS\\Packages\\Rute_Koridor_1M_be1f0d\\commondata\\default.gdb|layername=Rute_Koridor_4", "koridor_id": "K4", "route_id": "K4_11", "nama_koridor": "Rute Koridor 4 Menuju Tawang", "headway_menit": 10, "arah_balik": false }, "geometry": { "type": "MultiLineString", "coordinates": [ [ [ 110.30825880082071, -7.088243979852987 ], [ 110.308740297813003, -7.080884112289552 ], [ 110.352285232895397, -6.989296751792645 ], [ 110.36352944530671, -6.987269158458361 ], [ 110.366295358066537, -6.986815311604209 ], [ 110.39060197302426, -6.982464957623281 ], [ 110.400602018767074, -6.980662923760631 ], [ 110.400888581342684, -6.980665598729457 ], [ 110.409279744411663, -6.984200110834283 ], [ 110.411800417098874, -6.978618351454746 ], [ 110.415372118668557, -6.978398111340751 ], [ 110.409622002534888, -6.98428660083105 ], [ 110.422460516166382, -6.989734852568311 ] ], [ [ 110.422460516166382, -6.989734852568311 ], [ 110.422472402674217, -6.989739896569968 ], [ 110.422790406284818, -6.989127340197332 ], [ 110.424062420727111, -6.989733655097154 ], [ 110.423150630713721, -6.991514254748069 ], [ 110.421820225777964, -6.9909757065459 ], [ 110.422460516166382, -6.989734852568311 ] ], [ [ 110.422460516166382, -6.989734852568311 ], [ 110.422802982698784, -6.989071166865322 ], [ 110.418708461633756, -6.975032972178812 ], [ 110.421717817835557, -6.971924610706602 ], [ 110.422520911699579, -6.971055228807129 ], [ 110.422709557909258, -6.970828743411567 ], [ 110.422714049485677, -6.970753842705459 ], [ 110.42223434912394, -6.968949980418133 ], [ 110.42223434912394, -6.968802853430059 ], [ 110.427178676447753, -6.966179526897316 ] ] ] } },
{ "type": "Feature", "properties": { "OBJECTID": 1, "Rute": null, "SymbolID": null, "SHAPE_Length": 29118.826635303933, "Nama": "Rute Koridor 5 Menuju Meteseh", "layer": "default — Rute_Koridor_5", "path": "C:\\Users\\LENOVO\\Documents\\ArcGIS\\Packages\\Rute_Koridor_1M_be1f0d\\commondata\\default.gdb|layername=Rute_Koridor_5", "koridor_id": "K5", "route_id": "K5_12", "nama_koridor": "Rute Koridor 5 Menuju Meteseh", "headway_menit": 10, "arah_balik": true }, "geometry": { "type": "MultiLineString", "coordinates": [ [ [ 110.39078702597277, -6.962493291396465 ], [ 110.392976220320151, -6.961969868574044 ], [ 110.392119227539112, -6.954538449890006 ], [ 110.392211754013388, -6.954538449890006 ], [ 110.393069645109719, -6.962045662374946 ], [ 110.390786127657492, -6.962573543566333 ], [ 110.390690906237381, -6.982384708860684 ], [ 110.400219336456018, -6.980662923760631 ], [ 110.400221133086589, -6.981036527590897 ], [ 110.390595684817242, -6.982763661229751 ], [ 110.384116136672901, -6.983894274944215 ], [ 110.384116136672901, -6.98538867815241 ], [ 110.404960644525616, -6.995881465415422 ], [ 110.406511136706015, -6.994470908982787 ], [ 110.40608443694606, -6.991473239509463 ], [ 110.409365982678921, -6.984733316951507 ], [ 110.409242015169738, -6.984527346098673 ], [ 110.411901028410725, -6.978690575923023 ], [ 110.415205930340989, -6.978472119163905 ], [ 110.409599544652778, -6.984195652586592 ], [ 110.422711354539814, -6.989714039039185 ], [ 110.422892814227197, -6.989374324449996 ], [ 110.423810892447548, -6.989822818986666 ], [ 110.423054510978332, -6.991263705082208 ], [ 110.422618828065538, -6.991097860745522 ], [ 110.420230207725069, -6.997704839571545 ], [ 110.426715145761122, -7.004536410835916 ], [ 110.425758439983539, -7.006413247598097 ], [ 110.468168802862124, -7.024354712113676 ], [ 110.469883686739479, -7.060161567934019 ], [ 110.461688356402462, -7.064064555689134 ], [ 110.46167488167319, -7.067446880696941 ], [ 110.458930528480209, -7.067446880696941 ], [ 110.45892603690379, -7.065947392274 ], [ 110.461783577822587, -7.063165926434207 ], [ 110.461783577822587, -7.063017046220332 ], [ 110.461976715608671, -7.062942160346159 ] ] ] } },
{ "type": "Feature", "properties": { "OBJECTID": 2, "Rute": null, "SymbolID": null, "SHAPE_Length": 27484.832898709927, "Nama": "Rute Koridor 5 Menuju PRPP", "layer": "default — Rute_Koridor_5", "path": "C:\\Users\\LENOVO\\Documents\\ArcGIS\\Packages\\Rute_Koridor_1M_be1f0d\\commondata\\default.gdb|layername=Rute_Koridor_5", "koridor_id": "K5", "route_id": "K5_13", "nama_koridor": "Rute Koridor 5 Menuju PRPP", "headway_menit": 10, "arah_balik": false }, "geometry": { "type": "MultiLineString", "coordinates": [ [ [ 110.461976715608671, -7.062942160346159 ], [ 110.462259684923183, -7.062864599963691 ], [ 110.469684260746419, -7.059488481974325 ], [ 110.468069089865566, -7.024430495792291 ], [ 110.425471877407915, -7.006413247598097 ], [ 110.426427684870205, -7.004384836991002 ], [ 110.419845728783471, -6.997479258705007 ], [ 110.420713501347947, -6.995452592513439 ], [ 110.418137133113092, -6.994399578582244 ], [ 110.421567799183123, -6.993193201532879 ], [ 110.422330468859357, -6.991472347873821 ], [ 110.422127449605128, -6.990868710140425 ] ], [ [ 110.422127449605128, -6.990868710140425 ], [ 110.422847656816174, -6.989523296906678 ] ], [ [ 110.422127449605128, -6.990868710140425 ], [ 110.42284789846299, -6.98952411988984 ], [ 110.422847656816174, -6.989523296906678 ] ], [ [ 110.422847656816174, -6.989523296906678 ], [ 110.422904492325898, -6.989417123151998 ], [ 110.423773163205638, -6.989831735374682 ], [ 110.423056307608903, -6.991209315279365 ], [ 110.422127449605128, -6.990868710140425 ] ], [ [ 110.422847656816174, -6.989523296906678 ], [ 110.418610545267811, -6.975103413866418 ], [ 110.415678444180458, -6.97813952969813 ], [ 110.409635477264146, -6.984326725050925 ], [ 110.40936777930952, -6.984947312546664 ], [ 110.406176963420293, -6.991473239509463 ], [ 110.406645883998635, -6.994476258762369 ], [ 110.404980407461849, -6.996018775991002 ], [ 110.384037084927911, -6.985447526868382 ], [ 110.38402091525279, -6.983583980600679 ], [ 110.390595684817242, -6.982384708860684 ], [ 110.390690906237381, -6.962570868494218 ], [ 110.376682577696826, -6.964144699948876 ], [ 110.376682577696826, -6.965423378387237 ], [ 110.375635142075524, -6.965423378387237 ], [ 110.375634243760231, -6.963545485422597 ], [ 110.376682577696826, -6.963998463141059 ], [ 110.39078702597277, -6.962493291396465 ] ] ] } },
{ "type": "Feature", "properties": { "OBJECTID": 1, "Rute": null, "SymbolID": null, "SHAPE_Length": 20266.266063632684, "Nama": "Rute Koridor 6 Menuju Undip", "layer": "default — Rute_Koridor_6", "path": "C:\\Users\\LENOVO\\Documents\\ArcGIS\\Packages\\Rute_Koridor_1M_be1f0d\\commondata\\default.gdb|layername=Rute_Koridor_6", "koridor_id": "K6", "route_id": "K6_14", "nama_koridor": "Rute Koridor 6 Menuju Undip", "headway_menit": 10, "arah_balik": true }, "geometry": { "type": "MultiLineString", "coordinates": [ [ [ 110.400697240187171, -7.05145238406019 ], [ 110.395170804559271, -7.048903519347422 ], [ 110.395169906244007, -7.049199505755979 ], [ 110.394408134883065, -7.056933420928335 ], [ 110.391644018753837, -7.055970588961308 ], [ 110.388213352683749, -7.020448715440303 ], [ 110.395266025979396, -7.018947291878034 ], [ 110.403937463417009, -7.023457789049864 ], [ 110.415083759462334, -7.021502562101442 ], [ 110.416036871978804, -7.008439866173353 ], [ 110.416084482688873, -7.008214290498485 ], [ 110.416189585577101, -7.008214290498485 ], [ 110.416230009764888, -7.008439866173353 ], [ 110.415754800979599, -7.014445666905773 ], [ 110.421090793767277, -7.014447450089293 ], [ 110.421090793767277, -7.014668564789432 ], [ 110.415754800979599, -7.014672131154723 ], [ 110.413277247425995, -7.048453298694771 ], [ 110.431293858764278, -7.053933479541498 ], [ 110.435384786568179, -7.046951965674017 ], [ 110.44417300499272, -7.046947508027166 ] ] ] } },
{ "type": "Feature", "properties": { "OBJECTID": 2, "Rute": null, "SymbolID": null, "SHAPE_Length": 19780.721691489274, "Nama": "Rute Koridor 6 Menuju Unnes", "layer": "default — Rute_Koridor_6", "path": "C:\\Users\\LENOVO\\Documents\\ArcGIS\\Packages\\Rute_Koridor_1M_be1f0d\\commondata\\default.gdb|layername=Rute_Koridor_6", "koridor_id": "K6", "route_id": "K6_15", "nama_koridor": "Rute Koridor 6 Menuju Unnes", "headway_menit": 10, "arah_balik": false }, "geometry": { "type": "MultiLineString", "coordinates": [ [ [ 110.44417300499272, -7.046947508027166 ], [ 110.445679479724177, -7.046951965674017 ], [ 110.442814752283113, -7.053783704840931 ], [ 110.443193841333027, -7.054833909755841 ], [ 110.444724570577165, -7.054076122068419 ], [ 110.444820690312554, -7.054161707563492 ], [ 110.439678733626266, -7.056706085783406 ], [ 110.413085906270467, -7.048453298694771 ], [ 110.414190834069942, -7.033371991561591 ], [ 110.414992131303364, -7.023075303439881 ], [ 110.414896909883268, -7.022939783987448 ], [ 110.414982761874967, -7.021630013191936 ] ], [ [ 110.414982761874967, -7.021630013191936 ], [ 110.40393566678641, -7.023604007241921 ], [ 110.395268720925259, -7.019097969401953 ], [ 110.388403795523985, -7.020524499755323 ], [ 110.390977468812991, -7.045972173865189 ], [ 110.394122470622705, -7.045521058832907 ], [ 110.395169906244007, -7.048752851494522 ], [ 110.395169906244007, -7.04882506508694 ], [ 110.40069903681777, -7.051381062398154 ] ], [ [ 110.414982761874967, -7.021630013191936 ], [ 110.4149912329881, -7.021500778944985 ], [ 110.415063098210837, -7.020446932279806 ], [ 110.415945243819834, -7.008438082966872 ], [ 110.41603777029411, -7.008139395783889 ], [ 110.41623090808018, -7.008137612576224 ], [ 110.416276722159651, -7.008446998999243 ], [ 110.415981176431202, -7.01244760551229 ], [ 110.415819479680053, -7.01437077319293 ], [ 110.421186913502666, -7.014371664784835 ], [ 110.42118511687211, -7.014746133227946 ], [ 110.415801513374362, -7.014746133227946 ], [ 110.415276897248418, -7.021577454666729 ], [ 110.414982761874967, -7.021630013191936 ] ] ] } },
{ "type": "Feature", "properties": { "OBJECTID": 1, "Rute": null, "SymbolID": null, "SHAPE_Length": 21621.9035779525, "Nama": "Rute Koridor 7 Menuju Balaikota", "layer": "default — Rute_Koridor_7", "path": "C:\\Users\\LENOVO\\Documents\\ArcGIS\\Packages\\Rute_Koridor_1M_be1f0d\\commondata\\default.gdb|layername=Rute_Koridor_7", "koridor_id": "K7", "route_id": "K7_16", "nama_koridor": "Rute Koridor 7 Menuju Balaikota", "headway_menit": 10, "arah_balik": true }, "geometry": { "type": "MultiLineString", "coordinates": [ [ [ 110.46368890454022, -6.952966369647468 ], [ 110.46368890454022, -6.955736009471014 ], [ 110.480759589884315, -6.951385367025223 ], [ 110.478935111542299, -6.964072473238498 ], [ 110.481509683146555, -6.968873296054373 ], [ 110.480077768583683, -6.981338798729331 ], [ 110.474457009850951, -6.984116295770615 ], [ 110.474268363641301, -6.984341883088677 ], [ 110.47054844004974, -7.005662513799804 ], [ 110.470363387101216, -7.005662513799804 ], [ 110.446249909929605, -6.975852413433905 ], [ 110.446060365404634, -6.975851521768452 ], [ 110.445005743261092, -6.981639286363637 ], [ 110.444915911732679, -6.98164285298127 ], [ 110.445868125933842, -6.975632172018765 ], [ 110.434144213160792, -6.970152853273229 ], [ 110.434146908106655, -6.982694112347362 ], [ 110.431289367187858, -6.982690545737711 ], [ 110.431288468872594, -6.969931717501814 ], [ 110.422806575959939, -6.970830526761559 ], [ 110.422522708330149, -6.9709785447878 ], [ 110.415658681244167, -6.97797457236873 ], [ 110.413295213731672, -6.980379376979117 ] ] ] } },
{ "type": "Feature", "properties": { "OBJECTID": 2, "Rute": null, "SymbolID": null, "SHAPE_Length": 22870.996990349497, "Nama": "Rute Koridor 7 Menuju Genuk", "layer": "default — Rute_Koridor_7", "path": "C:\\Users\\LENOVO\\Documents\\ArcGIS\\Packages\\Rute_Koridor_1M_be1f0d\\commondata\\default.gdb|layername=Rute_Koridor_7", "koridor_id": "K7", "route_id": "K7_17", "nama_koridor": "Rute Koridor 7 Menuju Genuk", "headway_menit": 10, "arah_balik": false }, "geometry": { "type": "MultiLineString", "coordinates": [ [ [ 110.413295213731672, -6.980379376979117 ], [ 110.4095833749777, -6.984176036296259 ], [ 110.409463899044908, -6.984137695362756 ], [ 110.411942350913776, -6.978784200217147 ], [ 110.411945944174931, -6.978260795589711 ], [ 110.413658133106438, -6.974500646677882 ], [ 110.413848575946673, -6.974122579288033 ], [ 110.422233450808662, -6.969928150794982 ], [ 110.421949583178872, -6.968876862769234 ], [ 110.421948684863608, -6.968658401433209 ], [ 110.422051092805987, -6.968576366946048 ], [ 110.437580269122549, -6.960243549982137 ], [ 110.438054579592574, -6.960241766591886 ], [ 110.439769463469943, -6.9610719340246 ], [ 110.439964397886627, -6.961219955131177 ], [ 110.432337701124439, -6.966699378290716 ], [ 110.432335904493854, -6.969169333296435 ], [ 110.445772904513717, -6.975478805466071 ], [ 110.444820690312554, -6.981716860291296 ], [ 110.4451063545729, -6.981708835402838 ], [ 110.446156485140037, -6.975708855276259 ], [ 110.446249909929605, -6.975711530273394 ], [ 110.470359793840075, -7.005510940320936 ], [ 110.470453218629643, -7.00551183192976 ], [ 110.474179430428137, -6.984266984544531 ], [ 110.4743581951697, -6.984041397190343 ], [ 110.479883732482293, -6.981189000667438 ], [ 110.481316545360471, -6.968876862769234 ], [ 110.4787419737562, -6.964072473238498 ], [ 110.480562858837104, -6.951610078382126 ], [ 110.463509241483393, -6.956018679455325 ], [ 110.463498461699956, -6.95296547793854 ] ] ] } },
{ "type": "Feature", "properties": { "OBJECTID": 1, "Rute": null, "SymbolID": null, "SHAPE_Length": 24081.933047734903, "Nama": "Rute Koridor 8 Menuju Gunung Pati Cangkiran", "layer": "default — Rute_Koridor_8", "path": "C:\\Users\\LENOVO\\Documents\\ArcGIS\\Packages\\Rute_Koridor_1M_be1f0d\\commondata\\default.gdb|layername=Rute_Koridor_8", "koridor_id": "K8", "route_id": "K8_18", "nama_koridor": "Rute Koridor 8 Menuju Gunung Pati Cangkiran", "headway_menit": 10, "arah_balik": true }, "geometry": { "type": "MultiLineString", "coordinates": [ [ [ 110.42328717463694, -6.989623983489719 ], [ 110.423730044071988, -6.989844218317604 ], [ 110.423045527825494, -6.991165625105245 ], [ 110.42217865357631, -6.990853552314308 ], [ 110.422639489317078, -6.98999579688379 ], [ 110.417469684856982, -6.987791661363722 ], [ 110.417378955013262, -6.987870125913411 ], [ 110.417184918911914, -6.987870125913411 ], [ 110.400888581342684, -6.980961628517576 ], [ 110.400506797346935, -6.980961628517576 ], [ 110.400125013351186, -6.981113209963094 ], [ 110.390595684817242, -6.982837668362444 ], [ 110.383734352677166, -6.984118970719694 ], [ 110.383639131257027, -6.984197435885666 ], [ 110.368487247359795, -7.036739384330679 ], [ 110.35962357045139, -7.043273500915536 ], [ 110.361147113173246, -7.074052773533875 ], [ 110.361812764798785, -7.088091541927403 ], [ 110.361722933270372, -7.088166423721707 ], [ 110.344378261764589, -7.096940881112071 ], [ 110.308925350761513, -7.085463539819971 ], [ 110.30873760286714, -7.085463539819971 ], [ 110.308545363396348, -7.088243088403296 ] ] ] } },
{ "type": "Feature", "properties": { "OBJECTID": 2, "Rute": null, "SymbolID": null, "SHAPE_Length": 25313.482509138968, "Nama": "Rute Koridor 8 Menuju Simpang Lima", "layer": "default — Rute_Koridor_8", "path": "C:\\Users\\LENOVO\\Documents\\ArcGIS\\Packages\\Rute_Koridor_1M_be1f0d\\commondata\\default.gdb|layername=Rute_Koridor_8", "koridor_id": "K8", "route_id": "K8_19", "nama_koridor": "Rute Koridor 8 Menuju Simpang Lima", "headway_menit": 10, "arah_balik": false }, "geometry": { "type": "MultiLineString", "coordinates": [ [ [ 110.308449243660931, -7.088238631154715 ], [ 110.308640584816445, -7.085387766131252 ], [ 110.308926249076805, -7.085387766131252 ], [ 110.34437377018817, -7.096724262872775 ], [ 110.361625915219676, -7.088090650477383 ], [ 110.361721136639815, -7.088013985770433 ], [ 110.36100428104308, -7.074052773533875 ], [ 110.359529247346558, -7.043273500915536 ], [ 110.359624468766654, -7.04319772031197 ], [ 110.368392025939656, -7.036664494209015 ], [ 110.383544808152195, -6.98419119433886 ], [ 110.383639131257027, -6.983660662555287 ], [ 110.383924795517387, -6.983512648538576 ], [ 110.390598379763105, -6.982315159921956 ], [ 110.400750240788952, -6.98053541689586 ], [ 110.411554278711037, -6.978337478416673 ], [ 110.415417932748056, -6.978164496207793 ], [ 110.40956900193315, -6.984143936910277 ], [ 110.422788609654262, -6.98971760559523 ], [ 110.422915272109307, -6.989447438896861 ], [ 110.42328717463694, -6.989623983489719 ] ] ] } }
]
}
