{
"type": "FeatureCollection",
"name": "titik_poi",
"crs": { "type": "name", "properties": { "name": "urn:ogc:def:crs:OGC:1.3:CRS84" } },
"features": [
{ "type": "Feature", "properties": { "OBJECTID": 1, "Nama": "RS Permata Medika", "SymbolID": null, "poi_id": 0, "nama_poi": "RS Permata Medika" }, "geometry": { "type": "Point", "coordinates": [ 110.34217469437263, -7.000263792756214 ] } },
{ "type": "Feature", "properties": { "OBJECTID": 2, "Nama": "Curug Gondoriyo", "SymbolID": null, "poi_id": 1, "nama_poi": "Curug Gondoriyo" }, "geometry": { "type": "Point", "coordinates": [ 110.321106506014175, -7.00522116735655 ] } },
{ "type": "Feature", "properties": { "OBJECTID": 3, "Nama": "Sobo Alas", "SymbolID": null, "poi_id": 2, "nama_poi": "Sobo Alas" }, "geometry": { "type": "Point", "coordinates": [ 110.307772812252011, -7.00128112878255 ] } },
{ "type": "Feature", "properties": { "OBJECTID": 4, "Nama": "Sendang Kaliancar", "SymbolID": null, "poi_id": 3, "nama_poi": "Sendang Kaliancar" }, "geometry": { "type": "Point", "coordinates": [ 110.297528424751903, -6.99644497349442 ] } },
{ "type": "Feature", "properties": { "OBJECTID": 5, "Nama": "Taman Bendungan Plered", "SymbolID": null, "poi_id": 4, "nama_poi": "Taman Bendungan Plered" }, "geometry": { "type": "Point", "coordinates": [ 110.402114781705507, -6.9914803725947 ] } },
{ "type": "Feature", "properties": { "OBJECTID": 6, "Nama": "Pasar Waru Baru", "SymbolID": null, "poi_id": 5, "nama_poi": "Pasar Waru Baru" }, "geometry": { "type": "Point", "coordinates": [ 110.44580254891811, -6.965063137394708 ] } },
{ "type": "Feature", "properties": { "OBJECTID": 7, "Nama": "Masjid Agung Jawa Tengah", "SymbolID": null, "poi_id": 6, "nama_poi": "Masjid Agung Jawa Tengah" }, "geometry": { "type": "Point", "coordinates": [ 110.446215773948794, -6.983733777895659 ] } },
{ "type": "Feature", "properties": { "OBJECTID": 8, "Nama": "Taman Citra Satwa", "SymbolID": null, "poi_id": 7, "nama_poi": "Taman Citra Satwa" }, "geometry": { "type": "Point", "coordinates": [ 110.441391820873079, -6.989460813489563 ] } },
{ "type": "Feature", "properties": { "OBJECTID": 9, "Nama": "Pasar Swalayan ADA Fatmawati", "SymbolID": null, "poi_id": 8, "nama_poi": "Pasar Swalayan ADA Fatmawati" }, "geometry": { "type": "Point", "coordinates": [ 110.471966879883382, -7.011803873063724 ] } },
{ "type": "Feature", "properties": { "OBJECTID": 10, "Nama": "Taman Tirto Agung", "SymbolID": null, "poi_id": 9, "nama_poi": "Taman Tirto Agung" }, "geometry": { "type": "Point", "coordinates": [ 110.427231677049491, -7.064208978085096 ] } },
{ "type": "Feature", "properties": { "OBJECTID": 11, "Nama": "Banyumanik Hospital", "SymbolID": null, "poi_id": 10, "nama_poi": "Banyumanik Hospital" }, "geometry": { "type": "Point", "coordinates": [ 110.416238992917741, -7.063737376390752 ] } },
{ "type": "Feature", "properties": { "OBJECTID": 12, "Nama": "Aneka Jaya Sambiroto", "SymbolID": null, "poi_id": 11, "nama_poi": "Aneka Jaya Sambiroto" }, "geometry": { "type": "Point", "coordinates": [ 110.458367284797077, -7.029828936642729 ] } },
{ "type": "Feature", "properties": { "OBJECTID": 13, "Nama": "RS Primaya", "SymbolID": null, "poi_id": 12, "nama_poi": "RS Primaya" }, "geometry": { "type": "Point", "coordinates": [ 110.461661406943932, -7.02356299482683 ] } },
{ "type": "Feature", "properties": { "OBJECTID": 14, "Nama": "Stikes Karya Husada", "SymbolID": null, "poi_id": 13, "nama_poi": "Stikes Karya Husada" }, "geometry": { "type": "Point", "coordinates": [ 110.45799089069304, -7.031067314974468 ] } },
{ "type": "Feature", "properties": { "OBJECTID": 15, "Nama": "Sekolah Tinggi Ilmu Farmasi Semarang", "SymbolID": null, "poi_id": 14, "nama_poi": "Sekolah Tinggi Ilmu Farmasi Semarang" }, "geometry": { "type": "Point", "coordinates": [ 110.487920061014051, -7.0249057037543 ] } },
{ "type": "Feature", "properties": { "OBJECTID": 16, "Nama": "Central City Mall Semarang", "SymbolID": null, "poi_id": 15, "nama_poi": "Central City Mall Semarang" }, "geometry": { "type": "Point", "coordinates": [ 110.494593645259755, -7.019286093342655 ] } },
{ "type": "Feature", "properties": { "OBJECTID": 17, "Nama": "RSIA Plamongan", "SymbolID": null, "poi_id": 16, "nama_poi": "RSIA Plamongan" }, "geometry": { "type": "Point", "coordinates": [ 110.498087193399726, -7.023716345577727 ] } },
{ "type": "Feature", "properties": { "OBJECTID": 18, "Nama": "Terminal Penggaron", "SymbolID": null, "poi_id": 17, "nama_poi": "Terminal Penggaron" }, "geometry": { "type": "Point", "coordinates": [ 110.493666583886551, -7.017418224304738 ] } },
{ "type": "Feature", "properties": { "OBJECTID": 19, "Nama": "River Tubing Jatirejo", "SymbolID": null, "poi_id": 18, "nama_poi": "River Tubing Jatirejo" }, "geometry": { "type": "Point", "coordinates": [ 110.342247457910659, -7.070820266116453 ] } },
{ "type": "Feature", "properties": { "OBJECTID": 20, "Nama": "Watu Lumbung Kali Tlogo", "SymbolID": null, "poi_id": 19, "nama_poi": "Watu Lumbung Kali Tlogo" }, "geometry": { "type": "Point", "coordinates": [ 110.339448307485327, -7.059426968109284 ] } },
{ "type": "Feature", "properties": { "OBJECTID": 21, "Nama": "Lembah Waduk Jatibarang", "SymbolID": null, "poi_id": 20, "nama_poi": "Lembah Waduk Jatibarang" }, "geometry": { "type": "Point", "coordinates": [ 110.341182954298986, -7.042741253355615 ] } },
{ "type": "Feature", "properties": { "OBJECTID": 22, "Nama": "Danau BSB", "SymbolID": null, "poi_id": 21, "nama_poi": "Danau BSB" }, "geometry": { "type": "Point", "coordinates": [ 110.328418792426902, -7.027687399154284 ] } },
{ "type": "Feature", "properties": { "OBJECTID": 23, "Nama": "Bonbin Mangkang", "SymbolID": null, "poi_id": 22, "nama_poi": "Bonbin Mangkang" }, "geometry": { "type": "Point", "coordinates": [ 110.287713431957627, -6.971430623650846 ] } },
{ "type": "Feature", "properties": { "OBJECTID": 24, "Nama": "Pengadilan Agama", "SymbolID": null, "poi_id": 23, "nama_poi": "Pengadilan Agama" }, "geometry": { "type": "Point", "coordinates": [ 110.332435160062218, -6.977800698364004 ] } },
{ "type": "Feature", "properties": { "OBJECTID": 25, "Nama": "Lotte Mart", "SymbolID": null, "poi_id": 24, "nama_poi": "Lotte Mart" }, "geometry": { "type": "Point", "coordinates": [ 110.444582636762263, -6.99857952166344 ] } },
{ "type": "Feature", "properties": { "OBJECTID": 26, "Nama": "GOR Manunggal Jati", "SymbolID": null, "poi_id": 25, "nama_poi": "GOR Manunggal Jati" }, "geometry": { "type": "Point", "coordinates": [ 110.482059452100458, -7.012394109774831 ] } },
{ "type": "Feature", "properties": { "OBJECTID": 27, "Nama": "Transmart Majapahit", "SymbolID": null, "poi_id": 26, "nama_poi": "Transmart Majapahit" }, "geometry": { "type": "Point", "coordinates": [ 110.494438236715638, -7.019924465958336 ] } },
{ "type": "Feature", "properties": { "OBJECTID": 28, "Nama": "Swalayan ADA Fatmawati", "SymbolID": null, "poi_id": 27, "nama_poi": "Swalayan ADA Fatmawati" }, "geometry": { "type": "Point", "coordinates": [ 110.472077372663293, -7.012111473859965 ] } },
{ "type": "Feature", "properties": { "OBJECTID": 29, "Nama": "MAN 1 Kota Semarang", "SymbolID": null, "poi_id": 28, "nama_poi": "MAN 1 Kota Semarang" }, "geometry": { "type": "Point", "coordinates": [ 110.4832003125113, -7.016527528983224 ] } },
{ "type": "Feature", "properties": { "OBJECTID": 30, "Nama": "SMPN 28 Semarang", "SymbolID": null, "poi_id": 29, "nama_poi": "SMPN 28 Semarang" }, "geometry": { "type": "Point", "coordinates": [ 110.298530944608984, -6.967037325971454 ] } },
{ "type": "Feature", "properties": { "OBJECTID": 31, "Nama": "RSU Tugurejo", "SymbolID": null, "poi_id": 30, "nama_poi": "RSU Tugurejo" }, "geometry": { "type": "Point", "coordinates": [ 110.355967427245034, -6.984615619332438 ] } },
{ "type": "Feature", "properties": { "OBJECTID": 32, "Nama": "RS Bhayangkara Semarang", "SymbolID": null, "poi_id": 31, "nama_poi": "RS Bhayangkara Semarang" }, "geometry": { "type": "Point", "coordinates": [ 110.446525692721821, -7.000444791352573 ] } },
{ "type": "Feature", "properties": { "OBJECTID": 33, "Nama": "Superindo Istana Majapahit", "SymbolID": null, "poi_id": 32, "nama_poi": "Superindo Istana Majapahit" }, "geometry": { "type": "Point", "coordinates": [ 110.459645587446389, -7.006635257717756 ] } },
{ "type": "Feature", "properties": { "OBJECTID": 34, "Nama": "SMK Texmaco", "SymbolID": null, "poi_id": 33, "nama_poi": "SMK Texmaco" }, "geometry": { "type": "Point", "coordinates": [ 110.293180578776756, -6.971383364934095 ] } },
{ "type": "Feature", "properties": { "OBJECTID": 35, "Nama": "Pasar Mangkang", "SymbolID": null, "poi_id": 34, "nama_poi": "Pasar Mangkang" }, "geometry": { "type": "Point", "coordinates": [ 110.303353101054142, -6.973600952789251 ] } },
{ "type": "Feature", "properties": { "OBJECTID": 36, "Nama": "Kp. Wisata Taman Lele", "SymbolID": null, "poi_id": 35, "nama_poi": "Kp. Wisata Taman Lele" }, "geometry": { "type": "Point", "coordinates": [ 110.345612546964958, -6.985896916818742 ] } },
{ "type": "Feature", "properties": { "OBJECTID": 37, "Nama": "PSGD FIP Unnes", "SymbolID": null, "poi_id": 36, "nama_poi": "PSGD FIP Unnes" }, "geometry": { "type": "Point", "coordinates": [ 110.327777395314058, -6.982433749772796 ] } },
{ "type": "Feature", "properties": { "OBJECTID": 38, "Nama": "Universitas Terbuka", "SymbolID": null, "poi_id": 37, "nama_poi": "Universitas Terbuka" }, "geometry": { "type": "Point", "coordinates": [ 110.308940622121369, -6.972183195780831 ] } },
{ "type": "Feature", "properties": { "OBJECTID": 39, "Nama": "Candi Tugu", "SymbolID": null, "poi_id": 38, "nama_poi": "Candi Tugu" }, "geometry": { "type": "Point", "coordinates": [ 110.349156400760805, -6.980343710705127 ] } },
{ "type": "Feature", "properties": { "OBJECTID": 40, "Nama": "Tugu Batas Kendal", "SymbolID": null, "poi_id": 39, "nama_poi": "Tugu Batas Kendal" }, "geometry": { "type": "Point", "coordinates": [ 110.283356602829642, -6.967983399845581 ] } },
{ "type": "Feature", "properties": { "OBJECTID": 41, "Nama": "SMK Penerbangan", "SymbolID": null, "poi_id": 40, "nama_poi": "SMK Penerbangan" }, "geometry": { "type": "Point", "coordinates": [ 110.376750849658393, -6.981523371275341 ] } },
{ "type": "Feature", "properties": { "OBJECTID": 42, "Nama": "RSI Sultan Agung", "SymbolID": null, "poi_id": 41, "nama_poi": "RSI Sultan Agung" }, "geometry": { "type": "Point", "coordinates": [ 110.461634457485417, -6.95560760412227 ] } },
{ "type": "Feature", "properties": { "OBJECTID": 43, "Nama": "Unissula", "SymbolID": null, "poi_id": 42, "nama_poi": "Unissula" }, "geometry": { "type": "Point", "coordinates": [ 110.45810497673412, -6.95560760412227 ] } },
{ "type": "Feature", "properties": { "OBJECTID": 44, "Nama": "Kampoeng Semarang", "SymbolID": null, "poi_id": 43, "nama_poi": "Kampoeng Semarang" }, "geometry": { "type": "Point", "coordinates": [ 110.445912143382756, -6.958262199226645 ] } },
{ "type": "Feature", "properties": { "OBJECTID": 45, "Nama": "Vertical Garden Project", "SymbolID": null, "poi_id": 44, "nama_poi": "Vertical Garden Project" }, "geometry": { "type": "Point", "coordinates": [ 110.43931671256675, -6.958438755573978 ] } },
{ "type": "Feature", "properties": { "OBJECTID": 46, "Nama": "Pasar Waru Lama", "SymbolID": null, "poi_id": 45, "nama_poi": "Pasar Waru Lama" }, "geometry": { "type": "Point", "coordinates": [ 110.441812232426045, -6.959712991081314 ] } },
{ "type": "Feature", "properties": { "OBJECTID": 47, "Nama": "Stasuiun KA Tawang", "SymbolID": null, "poi_id": 46, "nama_poi": "Stasuiun KA Tawang" }, "geometry": { "type": "Point", "coordinates": [ 110.427931464655842, -6.964691304198845 ] } },
{ "type": "Feature", "properties": { "OBJECTID": 48, "Nama": "Masjid LDII", "SymbolID": null, "poi_id": 47, "nama_poi": "Masjid LDII" }, "geometry": { "type": "Point", "coordinates": [ 110.407978085564963, -6.990387226012595 ] } },
{ "type": "Feature", "properties": { "OBJECTID": 49, "Nama": "Polrestabes Semarang", "SymbolID": null, "poi_id": 48, "nama_poi": "Polrestabes Semarang" }, "geometry": { "type": "Point", "coordinates": [ 110.406024249821996, -6.992241828816825 ] } },
{ "type": "Feature", "properties": { "OBJECTID": 50, "Nama": "RSIA Gunung Sawo", "SymbolID": null, "poi_id": 49, "nama_poi": "RSIA Gunung Sawo" }, "geometry": { "type": "Point", "coordinates": [ 110.406652172205611, -6.996176593940335 ] } },
{ "type": "Feature", "properties": { "OBJECTID": 51, "Nama": "Taman Gajahmungkur", "SymbolID": null, "poi_id": 50, "nama_poi": "Taman Gajahmungkur" }, "geometry": { "type": "Point", "coordinates": [ 110.408577261859477, -7.005490433317063 ] } },
{ "type": "Feature", "properties": { "OBJECTID": 52, "Nama": "Candi Ereveld", "SymbolID": null, "poi_id": 51, "nama_poi": "Candi Ereveld" }, "geometry": { "type": "Point", "coordinates": [ 110.408363462821853, -7.006933945864562 ] } },
{ "type": "Feature", "properties": { "OBJECTID": 53, "Nama": "Lapangan Banteng Raider", "SymbolID": null, "poi_id": 52, "nama_poi": "Lapangan Banteng Raider" }, "geometry": { "type": "Point", "coordinates": [ 110.414909486297233, -7.05214063753449 ] } },
{ "type": "Feature", "properties": { "OBJECTID": 54, "Nama": "Swalayan ADA Setia Budi Banyumanik", "SymbolID": null, "poi_id": 53, "nama_poi": "Swalayan ADA Setia Budi Banyumanik" }, "geometry": { "type": "Point", "coordinates": [ 110.412855937557723, -7.061297342551446 ] } },
{ "type": "Feature", "properties": { "OBJECTID": 55, "Nama": "Superindo Sukun Raya", "SymbolID": null, "poi_id": 54, "nama_poi": "Superindo Sukun Raya" }, "geometry": { "type": "Point", "coordinates": [ 110.413140703502819, -7.06431239162482 ] } },
{ "type": "Feature", "properties": { "OBJECTID": 56, "Nama": "Trans Studio Mini Semarang", "SymbolID": null, "poi_id": 55, "nama_poi": "Trans Studio Mini Semarang" }, "geometry": { "type": "Point", "coordinates": [ 110.411543498927642, -7.066731905254276 ] } },
{ "type": "Feature", "properties": { "OBJECTID": 57, "Nama": "Transmart Setiabudi Semarang", "SymbolID": null, "poi_id": 56, "nama_poi": "Transmart Setiabudi Semarang" }, "geometry": { "type": "Point", "coordinates": [ 110.411514752838556, -7.067283738018761 ] } },
{ "type": "Feature", "properties": { "OBJECTID": 58, "Nama": "Museum Rekor Indonesia Semarang", "SymbolID": null, "poi_id": 57, "nama_poi": "Museum Rekor Indonesia Semarang" }, "geometry": { "type": "Point", "coordinates": [ 110.411186867759852, -7.069123770132363 ] } },
{ "type": "Feature", "properties": { "OBJECTID": 59, "Nama": "Lapangan Barata Banyumanik", "SymbolID": null, "poi_id": 58, "nama_poi": "Lapangan Barata Banyumanik" }, "geometry": { "type": "Point", "coordinates": [ 110.412099556088506, -7.077162235319808 ] } },
{ "type": "Feature", "properties": { "OBJECTID": 60, "Nama": "RSU Banyumanik 2", "SymbolID": null, "poi_id": 59, "nama_poi": "RSU Banyumanik 2" }, "geometry": { "type": "Point", "coordinates": [ 110.411771671009802, -7.078592152801813 ] } },
{ "type": "Feature", "properties": { "OBJECTID": 61, "Nama": "Badan Pemeriksa Keuangan", "SymbolID": null, "poi_id": 60, "nama_poi": "Badan Pemeriksa Keuangan" }, "geometry": { "type": "Point", "coordinates": [ 110.409875327445036, -7.097682552665308 ] } },
{ "type": "Feature", "properties": { "OBJECTID": 62, "Nama": "Taman Unyil", "SymbolID": null, "poi_id": 61, "nama_poi": "Taman Unyil" }, "geometry": { "type": "Point", "coordinates": [ 110.412519967641472, -7.109949377066148 ] } },
{ "type": "Feature", "properties": { "OBJECTID": 63, "Nama": "Terminal Ungaran", "SymbolID": null, "poi_id": 62, "nama_poi": "Terminal Ungaran" }, "geometry": { "type": "Point", "coordinates": [ 110.404130601203093, -7.120145184584916 ] } },
{ "type": "Feature", "properties": { "OBJECTID": 64, "Nama": "Pura Giri Natha", "SymbolID": null, "poi_id": 63, "nama_poi": "Pura Giri Natha" }, "geometry": { "type": "Point", "coordinates": [ 110.410639793751812, -6.998458261043181 ] } },
{ "type": "Feature", "properties": { "OBJECTID": 65, "Nama": "Bumi Rejo Park", "SymbolID": null, "poi_id": 64, "nama_poi": "Bumi Rejo Park" }, "geometry": { "type": "Point", "coordinates": [ 110.415636223362071, -7.087519230668892 ] } },
{ "type": "Feature", "properties": { "OBJECTID": 66, "Nama": "SMPN 5 Semarang", "SymbolID": null, "poi_id": 65, "nama_poi": "SMPN 5 Semarang" }, "geometry": { "type": "Point", "coordinates": [ 110.417104968851618, -7.011010351231266 ] } },
{ "type": "Feature", "properties": { "OBJECTID": 67, "Nama": "Universitas PGRI Semarang", "SymbolID": null, "poi_id": 66, "nama_poi": "Universitas PGRI Semarang" }, "geometry": { "type": "Point", "coordinates": [ 110.435596788975204, -6.988106411125527 ] } },
{ "type": "Feature", "properties": { "OBJECTID": 68, "Nama": "Pelabuhan Tanjung Emas", "SymbolID": null, "poi_id": 67, "nama_poi": "Pelabuhan Tanjung Emas" }, "geometry": { "type": "Point", "coordinates": [ 110.425607523015799, -6.94818143507951 ] } },
{ "type": "Feature", "properties": { "OBJECTID": 69, "Nama": "Taman Siranda", "SymbolID": null, "poi_id": 68, "nama_poi": "Taman Siranda" }, "geometry": { "type": "Point", "coordinates": [ 110.419213314823452, -6.997892080524208 ] } },
{ "type": "Feature", "properties": { "OBJECTID": 70, "Nama": "Waduk Siranda", "SymbolID": null, "poi_id": 69, "nama_poi": "Waduk Siranda" }, "geometry": { "type": "Point", "coordinates": [ 110.419199840094194, -7.000765773912359 ] } },
{ "type": "Feature", "properties": { "OBJECTID": 71, "Nama": "Java Mall", "SymbolID": null, "poi_id": 70, "nama_poi": "Java Mall" }, "geometry": { "type": "Point", "coordinates": [ 110.427025962849441, -7.005686587230141 ] } },
{ "type": "Feature", "properties": { "OBJECTID": 72, "Nama": "Pasar Peterongan", "SymbolID": null, "poi_id": 71, "nama_poi": "Pasar Peterongan" }, "geometry": { "type": "Point", "coordinates": [ 110.42839499534243, -7.002190577164809 ] } },
{ "type": "Feature", "properties": { "OBJECTID": 73, "Nama": "Siloam Hospitals", "SymbolID": null, "poi_id": 72, "nama_poi": "Siloam Hospitals" }, "geometry": { "type": "Point", "coordinates": [ 110.433960058527546, -6.99902800736029 ] } },
{ "type": "Feature", "properties": { "OBJECTID": 74, "Nama": "RS Telogorejo", "SymbolID": null, "poi_id": 73, "nama_poi": "RS Telogorejo" }, "geometry": { "type": "Point", "coordinates": [ 110.426682806410909, -6.987748862512881 ] } },
{ "type": "Feature", "properties": { "OBJECTID": 75, "Nama": "Taman Makam Pahlawan Giri Tunggal", "SymbolID": null, "poi_id": 74, "nama_poi": "Taman Makam Pahlawan Giri Tunggal" }, "geometry": { "type": "Point", "coordinates": [ 110.420764705319129, -6.997114584267305 ] } },
{ "type": "Feature", "properties": { "OBJECTID": 76, "Nama": "Pasar Jatingaleh", "SymbolID": null, "poi_id": 75, "nama_poi": "Pasar Jatingaleh" }, "geometry": { "type": "Point", "coordinates": [ 110.413895288341479, -7.031612949304077 ] } },
{ "type": "Feature", "properties": { "OBJECTID": 77, "Nama": "Stadion Diponegoro", "SymbolID": null, "poi_id": 76, "nama_poi": "Stadion Diponegoro" }, "geometry": { "type": "Point", "coordinates": [ 110.429852961048567, -6.9897300885412 ] } },
{ "type": "Feature", "properties": { "OBJECTID": 78, "Nama": "Taman Herbal Cangkiran", "SymbolID": null, "poi_id": 77, "nama_poi": "Taman Herbal Cangkiran" }, "geometry": { "type": "Point", "coordinates": [ 110.307841982528885, -7.082425450869173 ] } },
{ "type": "Feature", "properties": { "OBJECTID": 79, "Nama": "Puskesmas Wijen", "SymbolID": null, "poi_id": 78, "nama_poi": "Puskesmas Wijen" }, "geometry": { "type": "Point", "coordinates": [ 110.309482306237669, -7.081492090297054 ] } },
{ "type": "Feature", "properties": { "OBJECTID": 80, "Nama": "Sirkuit Mijen", "SymbolID": null, "poi_id": 79, "nama_poi": "Sirkuit Mijen" }, "geometry": { "type": "Point", "coordinates": [ 110.309424814059497, -7.07584463910437 ] } },
{ "type": "Feature", "properties": { "OBJECTID": 81, "Nama": "Lapangan Jatisari", "SymbolID": null, "poi_id": 80, "nama_poi": "Lapangan Jatisari" }, "geometry": { "type": "Point", "coordinates": [ 110.309125675069879, -7.077599947438537 ] } },
{ "type": "Feature", "properties": { "OBJECTID": 82, "Nama": "Jatisari Square", "SymbolID": null, "poi_id": 81, "nama_poi": "Jatisari Square" }, "geometry": { "type": "Point", "coordinates": [ 110.312519510213292, -7.071528994858489 ] } },
{ "type": "Feature", "properties": { "OBJECTID": 83, "Nama": "Silayur Park", "SymbolID": null, "poi_id": 82, "nama_poi": "Silayur Park" }, "geometry": { "type": "Point", "coordinates": [ 110.339768107726499, -7.005984384376782 ] } },
{ "type": "Feature", "properties": { "OBJECTID": 84, "Nama": "UIN Walisongo", "SymbolID": null, "poi_id": 83, "nama_poi": "UIN Walisongo" }, "geometry": { "type": "Point", "coordinates": [ 110.35930287189494, -6.987199610246059 ] } },
{ "type": "Feature", "properties": { "OBJECTID": 85, "Nama": "Kampus 2 UIN Walisongo", "SymbolID": null, "poi_id": 84, "nama_poi": "Kampus 2 UIN Walisongo" }, "geometry": { "type": "Point", "coordinates": [ 110.352179231691863, -6.990110818233575 ] } },
{ "type": "Feature", "properties": { "OBJECTID": 86, "Nama": "Universitas Widya Husada", "SymbolID": null, "poi_id": 85, "nama_poi": "Universitas Widya Husada" }, "geometry": { "type": "Point", "coordinates": [ 110.366211814745114, -6.985715912585113 ] } },
{ "type": "Feature", "properties": { "OBJECTID": 87, "Nama": "Pasar Johar Semarang", "SymbolID": null, "poi_id": 86, "nama_poi": "Pasar Johar Semarang" }, "geometry": { "type": "Point", "coordinates": [ 110.424699326263564, -6.971980786096938 ] } },
{ "type": "Feature", "properties": { "OBJECTID": 88, "Nama": "GOR Tri Lomba Juang", "SymbolID": null, "poi_id": 87, "nama_poi": "GOR Tri Lomba Juang" }, "geometry": { "type": "Point", "coordinates": [ 110.418747089190987, -6.990346210675058 ] } },
{ "type": "Feature", "properties": { "OBJECTID": 89, "Nama": "Pasar Ngaliyan Semarang", "SymbolID": null, "poi_id": 88, "nama_poi": "Pasar Ngaliyan Semarang" }, "geometry": { "type": "Point", "coordinates": [ 110.346228791249871, -6.997601411203571 ] } },
{ "type": "Feature", "properties": { "OBJECTID": 90, "Nama": "Pasar Mijen", "SymbolID": null, "poi_id": 89, "nama_poi": "Pasar Mijen" }, "geometry": { "type": "Point", "coordinates": [ 110.316899695538666, -7.051739453638816 ] } },
{ "type": "Feature", "properties": { "OBJECTID": 91, "Nama": "Pantai Marina", "SymbolID": null, "poi_id": 90, "nama_poi": "Pantai Marina" }, "geometry": { "type": "Point", "coordinates": [ 110.389300314177547, -6.948959904270946 ] } },
{ "type": "Feature", "properties": { "OBJECTID": 92, "Nama": "PRPP Jawa Tengah", "SymbolID": null, "poi_id": 91, "nama_poi": "PRPP Jawa Tengah" }, "geometry": { "type": "Point", "coordinates": [ 110.389823133672905, -6.96158198246013 ] } },
{ "type": "Feature", "properties": { "OBJECTID": 93, "Nama": "Bandara Internasional Jend. Ahmad Yani", "SymbolID": null, "poi_id": 92, "nama_poi": "Bandara Internasional Jend. Ahmad Yani" }, "geometry": { "type": "Point", "coordinates": [ 110.375140170353973, -6.965958389251641 ] } },
{ "type": "Feature", "properties": { "OBJECTID": 94, "Nama": "Satpol PP Kota Semarang", "SymbolID": null, "poi_id": 93, "nama_poi": "Satpol PP Kota Semarang" }, "geometry": { "type": "Point", "coordinates": [ 110.388566390590427, -6.97937715364505 ] } },
{ "type": "Feature", "properties": { "OBJECTID": 95, "Nama": "RS Columbia Semarang", "SymbolID": null, "poi_id": 94, "nama_poi": "RS Columbia Semarang" }, "geometry": { "type": "Point", "coordinates": [ 110.382882749787797, -6.98444888098805 ] } },
{ "type": "Feature", "properties": { "OBJECTID": 96, "Nama": "Kampung Pelangi", "SymbolID": null, "poi_id": 95, "nama_poi": "Kampung Pelangi" }, "geometry": { "type": "Point", "coordinates": [ 110.408349089777303, -6.988915129796556 ] } },
{ "type": "Feature", "properties": { "OBJECTID": 97, "Nama": "Taman Kasmaran", "SymbolID": null, "poi_id": 96, "nama_poi": "Taman Kasmaran" }, "geometry": { "type": "Point", "coordinates": [ 110.406623426116525, -6.991024746556888 ] } },
{ "type": "Feature", "properties": { "OBJECTID": 98, "Nama": "RSUP Dr. Kariadi", "SymbolID": null, "poi_id": 97, "nama_poi": "RSUP Dr. Kariadi" }, "geometry": { "type": "Point", "coordinates": [ 110.407465147537749, -6.994280100136907 ] } },
{ "type": "Feature", "properties": { "OBJECTID": 99, "Nama": "RSU William Booth", "SymbolID": null, "poi_id": 98, "nama_poi": "RSU William Booth" }, "geometry": { "type": "Point", "coordinates": [ 110.405098086764085, -6.996913076998585 ] } },
{ "type": "Feature", "properties": { "OBJECTID": 100, "Nama": "RS. Wirabhakti Tamtama", "SymbolID": null, "poi_id": 99, "nama_poi": "RS. Wirabhakti Tamtama" }, "geometry": { "type": "Point", "coordinates": [ 110.407871186046151, -6.986929442092309 ] } },
{ "type": "Feature", "properties": { "OBJECTID": 101, "Nama": "Mall Tentrem", "SymbolID": null, "poi_id": 100, "nama_poi": "Mall Tentrem" }, "geometry": { "type": "Point", "coordinates": [ 110.42233585875104, -6.98674665496905 ] } },
{ "type": "Feature", "properties": { "OBJECTID": 102, "Nama": "Plaza Simpang Lima", "SymbolID": null, "poi_id": 101, "nama_poi": "Plaza Simpang Lima" }, "geometry": { "type": "Point", "coordinates": [ 110.424817903881078, -6.990206223517708 ] } },
{ "type": "Feature", "properties": { "OBJECTID": 103, "Nama": "Taman Indonesia Kaya", "SymbolID": null, "poi_id": 102, "nama_poi": "Taman Indonesia Kaya" }, "geometry": { "type": "Point", "coordinates": [ 110.420055036244676, -6.992470978748438 ] } },
{ "type": "Feature", "properties": { "OBJECTID": 104, "Nama": "Universitas Muhammadiyah Semarang", "SymbolID": null, "poi_id": 103, "nama_poi": "Universitas Muhammadiyah Semarang" }, "geometry": { "type": "Point", "coordinates": [ 110.461889579026121, -7.021392897966288 ] } },
{ "type": "Feature", "properties": { "OBJECTID": 105, "Nama": "Superindo Kedung Mundu", "SymbolID": null, "poi_id": 104, "nama_poi": "Superindo Kedung Mundu" }, "geometry": { "type": "Point", "coordinates": [ 110.466814143413657, -7.024450110389444 ] } },
{ "type": "Feature", "properties": { "OBJECTID": 106, "Nama": "Taman Meteseh", "SymbolID": null, "poi_id": 105, "nama_poi": "Taman Meteseh" }, "geometry": { "type": "Point", "coordinates": [ 110.471577011050044, -7.056382467325658 ] } },
{ "type": "Feature", "properties": { "OBJECTID": 107, "Nama": "RSUD KRMT Wongsonegoro", "SymbolID": null, "poi_id": 106, "nama_poi": "RSUD KRMT Wongsonegoro" }, "geometry": { "type": "Point", "coordinates": [ 110.466043388899877, -7.033836491724959 ] } },
{ "type": "Feature", "properties": { "OBJECTID": 108, "Nama": "Pasar Meteseh", "SymbolID": null, "poi_id": 107, "nama_poi": "Pasar Meteseh" }, "geometry": { "type": "Point", "coordinates": [ 110.471320092878813, -7.057245449376816 ] } },
{ "type": "Feature", "properties": { "OBJECTID": 109, "Nama": "UNNES", "SymbolID": null, "poi_id": 108, "nama_poi": "UNNES" }, "geometry": { "type": "Point", "coordinates": [ 110.392479451968057, -7.050510937237125 ] } },
{ "type": "Feature", "properties": { "OBJECTID": 110, "Nama": "Universitas Ivet Semarang", "SymbolID": null, "poi_id": 109, "nama_poi": "Universitas Ivet Semarang" }, "geometry": { "type": "Point", "coordinates": [ 110.398399349690422, -7.020413052228961 ] } },
{ "type": "Feature", "properties": { "OBJECTID": 111, "Nama": "UNTAG", "SymbolID": null, "poi_id": 110, "nama_poi": "UNTAG" }, "geometry": { "type": "Point", "coordinates": [ 110.400328930920679, -7.021459766344474 ] } },
{ "type": "Feature", "properties": { "OBJECTID": 112, "Nama": "Stadion Jatidiri", "SymbolID": null, "poi_id": 111, "nama_poi": "Stadion Jatidiri" }, "geometry": { "type": "Point", "coordinates": [ 110.409661528407412, -7.026098625166204 ] } },
{ "type": "Feature", "properties": { "OBJECTID": 113, "Nama": "Unika Souegijapranata", "SymbolID": null, "poi_id": 112, "nama_poi": "Unika Souegijapranata" }, "geometry": { "type": "Point", "coordinates": [ 110.404697438147352, -7.025169608904291 ] } },
{ "type": "Feature", "properties": { "OBJECTID": 114, "Nama": "Gereja Kristen Protestan Simalungun", "SymbolID": null, "poi_id": 113, "nama_poi": "Gereja Kristen Protestan Simalungun" }, "geometry": { "type": "Point", "coordinates": [ 110.414795400256153, -7.020422859612366 ] } },
{ "type": "Feature", "properties": { "OBJECTID": 115, "Nama": "GBKP Runggun Semarang", "SymbolID": null, "poi_id": 114, "nama_poi": "GBKP Runggun Semarang" }, "geometry": { "type": "Point", "coordinates": [ 110.414652568125959, -7.021116508567818 ] } },
{ "type": "Feature", "properties": { "OBJECTID": 116, "Nama": "Masjid Baiturrohim", "SymbolID": null, "poi_id": 115, "nama_poi": "Masjid Baiturrohim" }, "geometry": { "type": "Point", "coordinates": [ 110.414324683047255, -7.022234547252136 ] } },
{ "type": "Feature", "properties": { "OBJECTID": 117, "Nama": "Gombel Golf", "SymbolID": null, "poi_id": 116, "nama_poi": "Gombel Golf" }, "geometry": { "type": "Point", "coordinates": [ 110.41340211325047, -7.036994367273417 ] } },
{ "type": "Feature", "properties": { "OBJECTID": 118, "Nama": "Poltek Negeri Semarang", "SymbolID": null, "poi_id": 117, "nama_poi": "Poltek Negeri Semarang" }, "geometry": { "type": "Point", "coordinates": [ 110.435343464065085, -7.05208892940747 ] } },
{ "type": "Feature", "properties": { "OBJECTID": 119, "Nama": "Universitas Diponegoro", "SymbolID": null, "poi_id": 118, "nama_poi": "Universitas Diponegoro" }, "geometry": { "type": "Point", "coordinates": [ 110.44109537682931, -7.052159359441148 ] } },
{ "type": "Feature", "properties": { "OBJECTID": 120, "Nama": "RS Nasional Diponegoro", "SymbolID": null, "poi_id": 119, "nama_poi": "RS Nasional Diponegoro" }, "geometry": { "type": "Point", "coordinates": [ 110.443590896688605, -7.047819422935412 ] } },
{ "type": "Feature", "properties": { "OBJECTID": 121, "Nama": "Stadion Undip", "SymbolID": null, "poi_id": 120, "nama_poi": "Stadion Undip" }, "geometry": { "type": "Point", "coordinates": [ 110.445873515825525, -7.054712663809187 ] } },
{ "type": "Feature", "properties": { "OBJECTID": 122, "Nama": "Superindo Candi", "SymbolID": null, "poi_id": 121, "nama_poi": "Superindo Candi" }, "geometry": { "type": "Point", "coordinates": [ 110.417830807601192, -7.012740048768464 ] } },
{ "type": "Feature", "properties": { "OBJECTID": 123, "Nama": "RS St. Elisabeth", "SymbolID": null, "poi_id": 122, "nama_poi": "RS St. Elisabeth" }, "geometry": { "type": "Point", "coordinates": [ 110.419211518192867, -7.007988714714443 ] } },
{ "type": "Feature", "properties": { "OBJECTID": 124, "Nama": "Hutan Wisata Tinjomoyyo", "SymbolID": null, "poi_id": 123, "nama_poi": "Hutan Wisata Tinjomoyyo" }, "geometry": { "type": "Point", "coordinates": [ 110.401874931524659, -7.028381037273135 ] } },
{ "type": "Feature", "properties": { "OBJECTID": 125, "Nama": "Pasar Krempyeng", "SymbolID": null, "poi_id": 124, "nama_poi": "Pasar Krempyeng" }, "geometry": { "type": "Point", "coordinates": [ 110.394356930911869, -7.046751371523248 ] } },
{ "type": "Feature", "properties": { "OBJECTID": 126, "Nama": "Taman Bangetayu", "SymbolID": null, "poi_id": 125, "nama_poi": "Taman Bangetayu" }, "geometry": { "type": "Point", "coordinates": [ 110.477400789037006, -6.982983899289074 ] } },
{ "type": "Feature", "properties": { "OBJECTID": 127, "Nama": "Pasar Bangetayu", "SymbolID": null, "poi_id": 126, "nama_poi": "Pasar Bangetayu" }, "geometry": { "type": "Point", "coordinates": [ 110.476616559793968, -6.982460499359054 ] } },
{ "type": "Feature", "properties": { "OBJECTID": 128, "Nama": "Pasar Genuk", "SymbolID": null, "poi_id": 127, "nama_poi": "Pasar Genuk" }, "geometry": { "type": "Point", "coordinates": [ 110.479796595899742, -6.95236624914315 ] } },
{ "type": "Feature", "properties": { "OBJECTID": 129, "Nama": "Stasiun Alastua", "SymbolID": null, "poi_id": 128, "nama_poi": "Stasiun Alastua" }, "geometry": { "type": "Point", "coordinates": [ 110.475846703595479, -6.984470280564973 ] } },
{ "type": "Feature", "properties": { "OBJECTID": 130, "Nama": "Aneka Jaya Woltermonginsidi", "SymbolID": null, "poi_id": 129, "nama_poi": "Aneka Jaya Woltermonginsidi" }, "geometry": { "type": "Point", "coordinates": [ 110.473251470739669, -6.995114665354805 ] } },
{ "type": "Feature", "properties": { "OBJECTID": 131, "Nama": "Kampus III Poltekkes Semarang", "SymbolID": null, "poi_id": 130, "nama_poi": "Kampus III Poltekkes Semarang" }, "geometry": { "type": "Point", "coordinates": [ 110.47178182693483, -7.002573971539793 ] } },
{ "type": "Feature", "properties": { "OBJECTID": 132, "Nama": "Relokasi Pasar Johar", "SymbolID": null, "poi_id": 131, "nama_poi": "Relokasi Pasar Johar" }, "geometry": { "type": "Point", "coordinates": [ 110.44415863194817, -6.978766367019711 ] } },
{ "type": "Feature", "properties": { "OBJECTID": 133, "Nama": "Stadion Citarum", "SymbolID": null, "poi_id": 132, "nama_poi": "Stadion Citarum" }, "geometry": { "type": "Point", "coordinates": [ 110.438796588017269, -6.971164904766441 ] } },
{ "type": "Feature", "properties": { "OBJECTID": 134, "Nama": "Stasiun Tawang", "SymbolID": null, "poi_id": 133, "nama_poi": "Stasiun Tawang" }, "geometry": { "type": "Point", "coordinates": [ 110.427931464655842, -6.964691304198845 ] } },
{ "type": "Feature", "properties": { "OBJECTID": 135, "Nama": "Pasar Kobong", "SymbolID": null, "poi_id": 134, "nama_poi": "Pasar Kobong" }, "geometry": { "type": "Point", "coordinates": [ 110.435251835906115, -6.962261451717515 ] } },
{ "type": "Feature", "properties": { "OBJECTID": 136, "Nama": "Museum Kota Lama", "SymbolID": null, "poi_id": 135, "nama_poi": "Museum Kota Lama" }, "geometry": { "type": "Point", "coordinates": [ 110.430665038065399, -6.969645489191139 ] } },
{ "type": "Feature", "properties": { "OBJECTID": 137, "Nama": "Kota Lama Semarang", "SymbolID": null, "poi_id": 136, "nama_poi": "Kota Lama Semarang" }, "geometry": { "type": "Point", "coordinates": [ 110.427836243235717, -6.968041359068924 ] } },
{ "type": "Feature", "properties": { "OBJECTID": 138, "Nama": "Kota Tua Semarang", "SymbolID": null, "poi_id": 137, "nama_poi": "Kota Tua Semarang" }, "geometry": { "type": "Point", "coordinates": [ 110.428501894861256, -6.968513057712427 ] } },
{ "type": "Feature", "properties": { "OBJECTID": 139, "Nama": "Universitas Nasional Karangturi", "SymbolID": null, "poi_id": 138, "nama_poi": "Universitas Nasional Karangturi" }, "geometry": { "type": "Point", "coordinates": [ 110.436923600649877, -6.962825000276355 ] } },
{ "type": "Feature", "properties": { "OBJECTID": 140, "Nama": "Bangunan Marabunta", "SymbolID": null, "poi_id": 139, "nama_poi": "Bangunan Marabunta" }, "geometry": { "type": "Point", "coordinates": [ 110.429999386439889, -6.966743962431412 ] } },
{ "type": "Feature", "properties": { "OBJECTID": 141, "Nama": "Stasiun KA Poncol", "SymbolID": null, "poi_id": 140, "nama_poi": "Stasiun KA Poncol" }, "geometry": { "type": "Point", "coordinates": [ 110.41491128292779, -6.973036525513165 ] } },
{ "type": "Feature", "properties": { "OBJECTID": 142, "Nama": "RSIA Kusuma Pradja", "SymbolID": null, "poi_id": 141, "nama_poi": "RSIA Kusuma Pradja" }, "geometry": { "type": "Point", "coordinates": [ 110.43575399414992, -6.976003996533946 ] } },
{ "type": "Feature", "properties": { "OBJECTID": 143, "Nama": "RS Panti Wiloso Dr Cipto", "SymbolID": null, "poi_id": 142, "nama_poi": "RS Panti Wiloso Dr Cipto" }, "geometry": { "type": "Point", "coordinates": [ 110.43471284673565, -6.973016908755171 ] } },
{ "type": "Feature", "properties": { "OBJECTID": 144, "Nama": "Queen City Mall Pemuda", "SymbolID": null, "poi_id": 143, "nama_poi": "Queen City Mall Pemuda" }, "geometry": { "type": "Point", "coordinates": [ 110.420249072346024, -6.972673615357184 ] } },
{ "type": "Feature", "properties": { "OBJECTID": 145, "Nama": "Pecinan Semarang", "SymbolID": null, "poi_id": 144, "nama_poi": "Pecinan Semarang" }, "geometry": { "type": "Point", "coordinates": [ 110.424945464651401, -6.97500443883395 ] } },
{ "type": "Feature", "properties": { "OBJECTID": 146, "Nama": "Kampung Batik Gedong Semarang", "SymbolID": null, "poi_id": 145, "nama_poi": "Kampung Batik Gedong Semarang" }, "geometry": { "type": "Point", "coordinates": [ 110.431558861773084, -6.969035581553594 ] } },
{ "type": "Feature", "properties": { "OBJECTID": 147, "Nama": "Polder Tawang", "SymbolID": null, "poi_id": 146, "nama_poi": "Polder Tawang" }, "geometry": { "type": "Point", "coordinates": [ 110.428227010384305, -6.965104154947436 ] } },
{ "type": "Feature", "properties": { "OBJECTID": 148, "Nama": "Terminal Bus Terboyo", "SymbolID": null, "poi_id": 147, "nama_poi": "Terminal Bus Terboyo" }, "geometry": { "type": "Point", "coordinates": [ 110.46269177457485, -6.955693207691989 ] } },
{ "type": "Feature", "properties": { "OBJECTID": 149, "Nama": "Universitas Semarang", "SymbolID": null, "poi_id": 148, "nama_poi": "Universitas Semarang" }, "geometry": { "type": "Point", "coordinates": [ 110.452211130154993, -6.982081546744416 ] } },
{ "type": "Feature", "properties": { "OBJECTID": 150, "Nama": "Taman Setambran Mijen", "SymbolID": null, "poi_id": 149, "nama_poi": "Taman Setambran Mijen" }, "geometry": { "type": "Point", "coordinates": [ 110.313355841742819, -7.084377746243859 ] } },
{ "type": "Feature", "properties": { "OBJECTID": 151, "Nama": "Terminal Bus Cangkiran", "SymbolID": null, "poi_id": 150, "nama_poi": "Terminal Bus Cangkiran" }, "geometry": { "type": "Point", "coordinates": [ 110.308084527655595, -7.088242196953569 ] } },
{ "type": "Feature", "properties": { "OBJECTID": 152, "Nama": "Lembah Aur Kuning", "SymbolID": null, "poi_id": 151, "nama_poi": "Lembah Aur Kuning" }, "geometry": { "type": "Point", "coordinates": [ 110.324874938631055, -7.091707248958192 ] } },
{ "type": "Feature", "properties": { "OBJECTID": 153, "Nama": "Barokah Sebatur", "SymbolID": null, "poi_id": 152, "nama_poi": "Barokah Sebatur" }, "geometry": { "type": "Point", "coordinates": [ 110.342600495817322, -7.094000034666479 ] } },
{ "type": "Feature", "properties": { "OBJECTID": 154, "Nama": "Pasar Gunungpati", "SymbolID": null, "poi_id": 153, "nama_poi": "Pasar Gunungpati" }, "geometry": { "type": "Point", "coordinates": [ 110.360864143858734, -7.089683668885086 ] } },
{ "type": "Feature", "properties": { "OBJECTID": 155, "Nama": "Terminal Gunungpati", "SymbolID": null, "poi_id": 154, "nama_poi": "Terminal Gunungpati" }, "geometry": { "type": "Point", "coordinates": [ 110.360673701018527, -7.082843545870985 ] } },
{ "type": "Feature", "properties": { "OBJECTID": 156, "Nama": "Wisata Ngrembel Asri", "SymbolID": null, "poi_id": 155, "nama_poi": "Wisata Ngrembel Asri" }, "geometry": { "type": "Point", "coordinates": [ 110.360364680560792, -7.075719832772576 ] } },
{ "type": "Feature", "properties": { "OBJECTID": 157, "Nama": "Pasar Durian Gunungpati", "SymbolID": null, "poi_id": 156, "nama_poi": "Pasar Durian Gunungpati" }, "geometry": { "type": "Point", "coordinates": [ 110.358843832784771, -7.07147461445267 ] } },
{ "type": "Feature", "properties": { "OBJECTID": 158, "Nama": "Desa Wisata Kandri", "SymbolID": null, "poi_id": 157, "nama_poi": "Desa Wisata Kandri" }, "geometry": { "type": "Point", "coordinates": [ 110.3565621119631, -7.056118579930958 ] } },
{ "type": "Feature", "properties": { "OBJECTID": 159, "Nama": "Goa Kreo", "SymbolID": null, "poi_id": 158, "nama_poi": "Goa Kreo" }, "geometry": { "type": "Point", "coordinates": [ 110.347719096306207, -7.03749274262064 ] } },
{ "type": "Feature", "properties": { "OBJECTID": 160, "Nama": "Makam Raden Joyo Sampurno", "SymbolID": null, "poi_id": 159, "nama_poi": "Makam Raden Joyo Sampurno" }, "geometry": { "type": "Point", "coordinates": [ 110.374695504288326, -7.03755158475513 ] } },
{ "type": "Feature", "properties": { "OBJECTID": 161, "Nama": "Thematic Kampung Jawi", "SymbolID": null, "poi_id": 160, "nama_poi": "Thematic Kampung Jawi" }, "geometry": { "type": "Point", "coordinates": [ 110.377547655315411, -7.029119252540063 ] } },
{ "type": "Feature", "properties": { "OBJECTID": 162, "Nama": "Desa Wisata Lembah Kalipancur", "SymbolID": null, "poi_id": 161, "nama_poi": "Desa Wisata Lembah Kalipancur" }, "geometry": { "type": "Point", "coordinates": [ 110.375424936299055, -7.02056016295812 ] } },
{ "type": "Feature", "properties": { "OBJECTID": 163, "Nama": "Jungle Toon Waterpark", "SymbolID": null, "poi_id": 162, "nama_poi": "Jungle Toon Waterpark" }, "geometry": { "type": "Point", "coordinates": [ 110.386215499491882, -7.003669764422929 ] } },
{ "type": "Feature", "properties": { "OBJECTID": 164, "Nama": "Makam Sunan Kuning", "SymbolID": null, "poi_id": 163, "nama_poi": "Makam Sunan Kuning" }, "geometry": { "type": "Point", "coordinates": [ 110.376815528358847, -6.988161692931491 ] } },
{ "type": "Feature", "properties": { "OBJECTID": 165, "Nama": "Museum Ronggowarsito", "SymbolID": null, "poi_id": 164, "nama_poi": "Museum Ronggowarsito" }, "geometry": { "type": "Point", "coordinates": [ 110.383032768440245, -6.986916067427177 ] } },
{ "type": "Feature", "properties": { "OBJECTID": 166, "Nama": "Taman Sunan Kuning", "SymbolID": null, "poi_id": 165, "nama_poi": "Taman Sunan Kuning" }, "geometry": { "type": "Point", "coordinates": [ 110.380791471806376, -6.987774720152414 ] } },
{ "type": "Feature", "properties": { "OBJECTID": 167, "Nama": "Taman Madukuro", "SymbolID": null, "poi_id": 166, "nama_poi": "Taman Madukuro" }, "geometry": { "type": "Point", "coordinates": [ 110.400719698069267, -6.981107860030545 ] } },
{ "type": "Feature", "properties": { "OBJECTID": 168, "Nama": "Pasar Karang Ayu", "SymbolID": null, "poi_id": 167, "nama_poi": "Pasar Karang Ayu" }, "geometry": { "type": "Point", "coordinates": [ 110.395010006123428, -6.981367331688056 ] } },
{ "type": "Feature", "properties": { "OBJECTID": 169, "Nama": "Metro Plaza Jend. Sudirman", "SymbolID": null, "poi_id": 168, "nama_poi": "Metro Plaza Jend. Sudirman" }, "geometry": { "type": "Point", "coordinates": [ 110.394361422488288, -6.981298674253171 ] } },
{ "type": "Feature", "properties": { "OBJECTID": 170, "Nama": "Monumen Adipura", "SymbolID": null, "poi_id": 169, "nama_poi": "Monumen Adipura" }, "geometry": { "type": "Point", "coordinates": [ 110.402763365340633, -6.981165817629752 ] } },
{ "type": "Feature", "properties": { "OBJECTID": 171, "Nama": "Taman Bridge Fountain Semarang", "SymbolID": null, "poi_id": 170, "nama_poi": "Taman Bridge Fountain Semarang" }, "geometry": { "type": "Point", "coordinates": [ 110.40218125703656, -6.980805588742959 ] } },
{ "type": "Feature", "properties": { "OBJECTID": 172, "Nama": "SMAN 3 Semarang", "SymbolID": null, "poi_id": 171, "nama_poi": "SMAN 3 Semarang" }, "geometry": { "type": "Point", "coordinates": [ 110.412099556088506, -6.980707506572281 ] } },
{ "type": "Feature", "properties": { "OBJECTID": 173, "Nama": "UDINUS", "SymbolID": null, "poi_id": 172, "nama_poi": "UDINUS" }, "geometry": { "type": "Point", "coordinates": [ 110.409158471848315, -6.982612971971502 ] } },
{ "type": "Feature", "properties": { "OBJECTID": 174, "Nama": "Mall Paragon", "SymbolID": null, "poi_id": 173, "nama_poi": "Mall Paragon" }, "geometry": { "type": "Point", "coordinates": [ 110.415947040450391, -6.979215763387938 ] } },
{ "type": "Feature", "properties": { "OBJECTID": 175, "Nama": "Lawang Sewu", "SymbolID": null, "poi_id": 174, "nama_poi": "Lawang Sewu" }, "geometry": { "type": "Point", "coordinates": [ 110.41053738580942, -6.984019105943903 ] } },
{ "type": "Feature", "properties": { "OBJECTID": 176, "Nama": "DP Mall", "SymbolID": null, "poi_id": 175, "nama_poi": "DP Mall" }, "geometry": { "type": "Point", "coordinates": [ 110.412296287135746, -6.983575955744216 ] } },
{ "type": "Feature", "properties": { "OBJECTID": 177, "Nama": "Mall Ciputra Semarang", "SymbolID": null, "poi_id": 176, "nama_poi": "Mall Ciputra Semarang" }, "geometry": { "type": "Point", "coordinates": [ 110.423877367778601, -6.98879119174483 ] } },
{ "type": "Feature", "properties": { "OBJECTID": 178, "Nama": "Lapangan Pancasila Simpang Lima", "SymbolID": null, "poi_id": 177, "nama_poi": "Lapangan Pancasila Simpang Lima" }, "geometry": { "type": "Point", "coordinates": [ 110.422962882819363, -6.990370284895339 ] } },
{ "type": "Feature", "properties": { "OBJECTID": 179, "Nama": "Museum Mandala Bhakti", "SymbolID": null, "poi_id": 178, "nama_poi": "Museum Mandala Bhakti" }, "geometry": { "type": "Point", "coordinates": [ 110.408772196276132, -6.984789490804721 ] } },
{ "type": "Feature", "properties": { "OBJECTID": 180, "Nama": "Katedral Virgin Mary", "SymbolID": null, "poi_id": 179, "nama_poi": "Katedral Virgin Mary" }, "geometry": { "type": "Point", "coordinates": [ 110.409829513365537, -6.985509050518043 ] } },
{ "type": "Feature", "properties": { "OBJECTID": 181, "Nama": "Gramedia Pandanaran", "SymbolID": null, "poi_id": 180, "nama_poi": "Gramedia Pandanaran" }, "geometry": { "type": "Point", "coordinates": [ 110.421296507967313, -6.988877680892308 ] } },
{ "type": "Feature", "properties": { "OBJECTID": 182, "Nama": "Unisbank Semarang", "SymbolID": null, "poi_id": 181, "nama_poi": "Unisbank Semarang" }, "geometry": { "type": "Point", "coordinates": [ 110.416914526011382, -6.988372120391196 ] } },
{ "type": "Feature", "properties": { "OBJECTID": 183, "Nama": "Supermarket ADA Siliwangi", "SymbolID": null, "poi_id": 182, "nama_poi": "Supermarket ADA Siliwangi" }, "geometry": { "type": "Point", "coordinates": [ 110.404402790734153, -6.982601380488081 ] } },
{ "type": "Feature", "properties": { "OBJECTID": 184, "Nama": "Tugu Muda Semarang", "SymbolID": null, "poi_id": 183, "nama_poi": "Tugu Muda Semarang" }, "geometry": { "type": "Point", "coordinates": [ 110.409675901451948, -6.983888925043503 ] } },
{ "type": "Feature", "properties": { "OBJECTID": 185, "Nama": "Citra Land Semarang", "SymbolID": null, "poi_id": 184, "nama_poi": "Citra Land Semarang" }, "geometry": { "type": "Point", "coordinates": [ 110.42423669389224, -6.989621308572135 ] } }
]
}
